;  Created by Sandify
;  https://sandify.org
;  Version: 0.2.6
;
;  Machine type: Rectangular
;    Min X (mm): 0
;    Max X (mm): 500
;    Min Y (mm): 0
;    Max Y (mm): 500
;  Content type: shape
;  Layer:
;    Shape: FileImport
;    Name: goulet_heartswirl_ee.thr
;    From file:: goulet_heartswirl_ee.thr
;    Aspect Ratio: true
;    Comments: 
;    Visible: true
;    Initial width: 10
;    Initial height: 10
;    X offset: 0
;    Y offset: 0
;    Rotate (degrees): 0
;    Reverse path: false
;    Fine tuning:
;      Connect to next layer: line
;      Draw portion of path (%): 100
;      Backtrack at end (%): 0
;      Rotate starting point (%): 0
;  Reverse export path: false
;
; File name: 'heartswirl'
; File type: gcode
;

G01 X202.377 Y47.534
G01 X196.135 Y47.937
G01 X190.002 Y50.244
G01 X184.019 Y54.527
G01 X178.310 Y60.528
G01 X172.933 Y68.217
G01 X167.976 Y77.229
G01 X163.404 Y87.418
G01 X159.296 Y98.340
G01 X155.627 Y109.509
G01 X152.272 Y120.696
G01 X149.267 Y131.445
G01 X146.404 Y141.389
G01 X143.620 Y150.167
G01 X140.769 Y157.624
G01 X137.752 Y163.474
G01 X134.397 Y167.622
G01 X130.639 Y170.031
G01 X126.363 Y170.781
G01 X121.555 Y169.957
G01 X116.137 Y167.780
G01 X110.190 Y164.505
G01 X103.692 Y160.465
G01 X96.784 Y155.950
G01 X89.622 Y151.438
G01 X82.267 Y147.168
G01 X75.012 Y143.561
G01 X67.932 Y140.864
G01 X61.338 Y139.426
G01 X55.320 Y139.395
G01 X50.088 Y140.921
G01 X45.786 Y144.077
G01 X42.490 Y148.796
G01 X40.281 Y155.079
G01 X39.192 Y162.716
G01 X39.101 Y171.522
G01 X39.975 Y181.154
G01 X41.688 Y191.451
G01 X44.012 Y202.003
G01 X46.713 Y212.455
G01 X49.584 Y222.613
G01 X52.315 Y232.064
G01 X54.719 Y240.689
G01 X56.447 Y248.186
G01 X57.348 Y254.525
G01 X57.223 Y259.527
G01 X55.916 Y263.243
G01 X53.344 Y265.692
G01 X49.492 Y267.038
G01 X44.454 Y267.394
G01 X38.272 Y266.995
G01 X31.175 Y266.048
G01 X23.346 Y264.810
G01 X15.084 Y263.572
G01 X6.755 Y262.565
G01 X-1.418 Y261.988
G01 X-9.067 Y262.068
G01 X-15.875 Y262.966
G01 X-21.536 Y264.772
G01 X-25.885 Y267.555
G01 X-28.635 Y271.298
G01 X-29.751 Y276.027
G01 X-29.121 Y281.585
G01 X-26.818 Y287.906
G01 X-22.928 Y294.788
G01 X-17.623 Y302.092
G01 X-11.156 Y309.594
G01 X-3.813 Y317.164
G01 X4.065 Y324.575
G01 X12.058 Y331.619
G01 X19.952 Y338.293
G01 X27.182 Y344.368
G01 X33.570 Y349.830
G01 X38.737 Y354.651
G01 X42.538 Y358.854
G01 X44.716 Y362.438
G01 X45.254 Y365.511
G01 X44.113 Y368.138
G01 X41.377 Y370.462
G01 X37.224 Y372.563
G01 X31.872 Y374.624
G01 X25.618 Y376.686
G01 X18.796 Y378.883
G01 X11.769 Y381.290
G01 X5.012 Y383.931
G01 X-1.197 Y386.892
G01 X-6.406 Y390.075
G01 X-10.329 Y393.550
G01 X-12.656 Y397.175
G01 X-13.240 Y400.923
G01 X-11.928 Y404.679
G01 X-7.154 Y408.334
G01 X-0.584 Y411.762
G01 X7.860 Y414.881
G01 X17.750 Y417.580
G01 X29.009 Y419.849
G01 X41.096 Y421.630
G01 X53.822 Y422.921
G01 X66.712 Y423.749
G01 X78.981 Y424.185
G01 X79.305 Y424.184
G01 X90.755 Y424.294
G01 X91.310 Y424.279
G01 X101.957 Y424.160
G01 X102.282 Y424.145
G01 X112.072 Y423.877
G01 X120.284 Y423.642
G01 X126.831 Y423.518
G01 X131.589 Y423.650
G01 X134.610 Y424.108
G01 X135.911 Y424.994
G01 X135.697 Y426.349
G01 X134.158 Y428.168
G01 X131.598 Y430.435
G01 X128.362 Y433.094
G01 X124.760 Y436.043
G01 X121.182 Y439.159
G01 X117.969 Y442.268
G01 X115.505 Y445.200
G01 X114.013 Y447.773
G01 X113.791 Y449.816
G01 X114.945 Y451.172
G01 X117.647 Y451.652
G01 X121.844 Y451.183
G01 X127.574 Y449.635
G01 X134.620 Y447.019
G01 X142.901 Y443.317
G01 X152.045 Y438.624
G01 X161.303 Y433.400
G01 X161.887 Y433.038
G01 X170.300 Y427.892
G01 X172.007 Y426.737
G01 X179.531 Y421.830
G01 X182.154 Y419.924
G01 X188.815 Y415.275
G01 X191.992 Y412.792
G01 X197.851 Y408.484
G01 X202.382 Y404.684
G01 X207.888 Y409.632
G01 X213.403 Y413.938
G01 X219.959 Y419.191
G01 X222.888 Y421.296
G01 X230.380 Y426.804
G01 X232.465 Y428.190
G01 X240.893 Y433.822
G01 X241.735 Y434.337
G01 X250.486 Y439.637
G01 X258.375 Y443.888
G01 X265.159 Y447.011
G01 X270.648 Y449.011
G01 X274.668 Y449.850
G01 X277.259 Y449.654
G01 X278.370 Y448.542
G01 X278.127 Y446.647
G01 X276.675 Y444.188
G01 X274.228 Y441.279
G01 X271.071 Y438.181
G01 X267.543 Y435.051
G01 X263.985 Y432.103
G01 X260.704 Y429.440
G01 X258.105 Y427.191
G01 X256.533 Y425.470
G01 X256.221 Y424.272
G01 X257.423 Y423.618
G01 X260.297 Y423.481
G01 X264.922 Y423.793
G01 X271.356 Y424.452
G01 X279.411 Y425.311
G01 X288.873 Y426.267
G01 X289.052 Y426.279
G01 X299.216 Y427.160
G01 X299.954 Y427.196
G01 X310.925 Y427.929
G01 X311.925 Y427.957
G01 X323.751 Y428.418
G01 X324.487 Y428.419
G01 X337.175 Y428.500
G01 X337.440 Y428.491
G01 X350.183 Y428.079
G01 X362.485 Y427.159
G01 X373.887 Y425.731
G01 X384.084 Y423.769
G01 X392.810 Y421.315
G01 X399.757 Y418.459
G01 X404.885 Y415.284
G01 X408.071 Y411.856
G01 X409.421 Y408.281
G01 X408.947 Y404.676
G01 X405.385 Y401.108
G01 X400.548 Y397.768
G01 X394.647 Y394.590
G01 X388.190 Y391.680
G01 X381.413 Y389.013
G01 X374.860 Y386.558
G01 X368.769 Y384.238
G01 X363.610 Y382.022
G01 X359.592 Y379.776
G01 X357.028 Y377.393
G01 X356.079 Y374.794
G01 X356.776 Y371.846
G01 X359.178 Y368.475
G01 X363.250 Y364.561
G01 X368.697 Y360.113
G01 X375.428 Y355.030
G01 X383.046 Y349.442
G01 X391.324 Y343.267
G01 X399.781 Y336.703
G01 X408.171 Y329.769
G01 X416.005 Y322.681
G01 X423.022 Y315.529
G01 X428.836 Y308.566
G01 X433.239 Y301.870
G01 X436.048 Y295.706
G01 X437.115 Y290.179
G01 X436.414 Y285.395
G01 X434.026 Y281.497
G01 X429.983 Y278.480
G01 X424.575 Y276.379
G01 X417.919 Y275.141
G01 X410.428 Y274.678
G01 X402.293 Y274.822
G01 X393.985 Y275.436
G01 X385.728 Y276.296
G01 X377.899 Y277.149
G01 X370.752 Y277.792
G01 X364.577 Y277.956
G01 X359.523 Y277.417
G01 X355.745 Y275.965
G01 X353.300 Y273.485
G01 X352.135 Y269.815
G01 X352.245 Y264.913
G01 X353.459 Y258.761
G01 X355.558 Y251.486
G01 X358.404 Y243.092
G01 X361.654 Y233.876
G01 X365.074 Y223.976
G01 X368.339 Y213.770
G01 X371.264 Y203.394
G01 X373.558 Y193.284
G01 X375.007 Y183.711
G01 X375.459 Y174.981
G01 X374.848 Y167.286
G01 X373.045 Y160.895
G01 X370.075 Y156.022
G01 X366.024 Y152.635
G01 X360.969 Y150.849
G01 X355.010 Y150.618
G01 X348.387 Y151.753
G01 X341.259 Y154.102
G01 X333.861 Y157.378
G01 X326.341 Y161.356
G01 X318.980 Y165.599
G01 X311.859 Y169.873
G01 X305.215 Y173.688
G01 X299.081 Y176.814
G01 X293.611 Y178.878
G01 X288.767 Y179.617
G01 X284.575 Y178.841
G01 X280.978 Y176.400
G01 X277.870 Y172.273
G01 X275.198 Y166.452
G01 X272.798 Y159.033
G01 X270.529 Y150.290
G01 X268.264 Y140.332
G01 X265.885 Y129.617
G01 X263.226 Y118.359
G01 X260.221 Y107.099
G01 X256.772 Y96.047
G01 X252.900 Y85.752
G01 X248.500 Y76.469
G01 X243.662 Y68.551
G01 X238.351 Y62.192
G01 X232.733 Y57.672
G01 X226.808 Y54.986
G01 X220.704 Y54.223
G01 X214.567 Y55.315
G01 X208.410 Y58.060
G01 X202.374 Y62.259
G01 X196.552 Y71.934
G01 X191.112 Y82.379
G01 X186.043 Y93.311
G01 X181.356 Y104.224
G01 X176.998 Y114.813
G01 X172.947 Y124.646
G01 X169.064 Y133.457
G01 X165.305 Y140.835
G01 X161.512 Y146.723
G01 X157.623 Y150.835
G01 X153.499 Y153.239
G01 X149.045 Y153.891
G01 X144.259 Y152.954
G01 X138.995 Y150.543
G01 X133.332 Y146.988
G01 X127.194 Y142.532
G01 X120.728 Y137.596
G01 X113.932 Y132.518
G01 X107.007 Y127.678
G01 X99.978 Y123.413
G01 X93.148 Y120.142
G01 X86.570 Y118.054
G01 X80.461 Y117.448
G01 X74.932 Y118.455
G01 X70.173 Y121.158
G01 X66.247 Y125.572
G01 X63.219 Y131.618
G01 X61.166 Y139.111
G01 X60.038 Y147.930
G01 X59.767 Y157.671
G01 X60.272 Y168.202
G01 X61.380 Y179.044
G01 X62.887 Y189.926
G01 X64.644 Y200.472
G01 X66.355 Y210.428
G01 X67.781 Y219.416
G01 X68.738 Y227.351
G01 X69.005 Y233.964
G01 X68.375 Y239.201
G01 X66.726 Y243.011
G01 X63.935 Y245.428
G01 X59.998 Y246.579
G01 X54.999 Y246.629
G01 X48.880 Y245.749
G01 X41.904 Y244.217
G01 X34.214 Y242.315
G01 X26.091 Y240.291
G01 X17.750 Y238.459
G01 X9.587 Y237.077
G01 X1.774 Y236.364
G01 X-5.293 Y236.517
G01 X-11.376 Y237.691
G01 X-16.195 Y239.981
G01 X-19.635 Y243.375
G01 X-21.510 Y247.898
G01 X-21.781 Y253.476
G01 X-20.457 Y260.000
G01 X-17.594 Y267.238
G01 X-13.353 Y275.067
G01 X-8.008 Y283.212
G01 X-1.733 Y291.558
G01 X5.093 Y299.789
G01 X12.180 Y307.782
G01 X19.087 Y315.282
G01 X25.575 Y322.257
G01 X31.228 Y328.471
G01 X35.825 Y333.998
G01 X39.060 Y338.685
G01 X40.788 Y342.661
G01 X40.923 Y345.914
G01 X39.440 Y348.587
G01 X36.377 Y350.751
G01 X31.950 Y352.584
G01 X26.214 Y354.184
G01 X19.642 Y355.713
G01 X12.416 Y357.325
G01 X4.988 Y359.120
G01 X-2.329 Y361.179
G01 X-9.096 Y363.584
G01 X-14.986 Y366.356
G01 X-19.611 Y369.534
G01 X-22.743 Y373.046
G01 X-24.135 Y376.853
G01 X-23.654 Y380.922
G01 X-21.260 Y385.108
G01 X-16.899 Y389.349
G01 X-10.801 Y393.536
G01 X-3.058 Y397.515
G01 X6.022 Y401.269
G01 X16.070 Y404.686
G01 X28.363 Y407.734
G01 X40.868 Y410.329
G01 X53.310 Y412.496
G01 X65.137 Y414.270
G01 X76.151 Y415.726
G01 X85.885 Y416.913
G01 X94.218 Y417.969
G01 X100.844 Y418.950
G01 X105.770 Y419.987
G01 X108.862 Y421.175
G01 X110.289 Y422.583
G01 X110.094 Y424.300
G01 X108.568 Y426.344
G01 X105.972 Y428.719
G01 X102.657 Y431.397
G01 X98.907 Y434.365
G01 X95.173 Y437.462
G01 X91.789 Y440.630
G01 X89.122 Y443.688
G01 X87.519 Y446.493
G01 X87.142 Y448.912
G01 X88.306 Y450.758
G01 X91.028 Y451.947
G01 X95.433 Y452.303
G01 X101.416 Y451.749
G01 X108.935 Y450.267
G01 X117.805 Y447.792
G01 X127.671 Y444.400
G01 X138.385 Y440.160
G01 X148.325 Y435.800
G01 X149.464 Y435.243
G01 X158.510 Y430.906
G01 X160.711 Y429.722
G01 X168.841 Y425.522
G01 X171.666 Y423.880
G01 X178.940 Y419.823
G01 X182.105 Y417.837
G01 X188.591 Y413.967
G01 X191.572 Y411.975
G01 X197.382 Y408.308
G01 X202.383 Y404.684
G01 X207.935 Y410.525
G01 X214.058 Y416.064
G01 X214.862 Y416.732
G01 X221.766 Y422.897
G01 X222.983 Y423.890
G01 X230.678 Y430.148
G01 X237.639 Y435.320
G01 X243.663 Y439.321
G01 X248.531 Y442.043
G01 X252.166 Y443.582
G01 X254.403 Y443.888
G01 X255.341 Y443.152
G01 X254.986 Y441.499
G01 X253.462 Y439.127
G01 X250.983 Y436.240
G01 X247.848 Y433.087
G01 X244.290 Y429.856
G01 X240.672 Y426.781
G01 X237.329 Y424.046
G01 X234.611 Y421.823
G01 X232.768 Y420.150
G01 X232.198 Y419.208
G01 X233.031 Y418.976
G01 X235.500 Y419.414
G01 X239.702 Y420.522
G01 X245.624 Y422.144
G01 X253.256 Y424.200
G01 X261.615 Y426.346
G01 X262.418 Y426.522
G01 X271.449 Y428.688
G01 X272.995 Y428.994
G01 X282.800 Y431.083
G01 X284.538 Y431.380
G01 X295.214 Y433.340
G01 X296.927 Y433.582
G01 X308.523 Y435.314
G01 X309.706 Y435.442
G01 X322.198 Y436.815
G01 X322.408 Y436.830
G01 X334.788 Y437.676
G01 X346.346 Y437.909
G01 X356.818 Y437.496
G01 X365.885 Y436.450
G01 X373.387 Y434.825
G01 X379.029 Y432.652
G01 X382.899 Y430.030
G01 X384.868 Y427.089
G01 X385.082 Y423.864
G01 X383.716 Y420.548
G01 X381.024 Y417.163
G01 X377.317 Y413.846
G01 X372.914 Y410.624
G01 X368.204 Y407.548
G01 X363.630 Y404.676
G01 X357.966 Y401.948
G01 X353.168 Y399.406
G01 X349.542 Y396.957
G01 X347.308 Y394.544
G01 X346.683 Y392.048
G01 X347.800 Y389.388
G01 X350.594 Y386.471
G01 X355.058 Y383.210
G01 X361.077 Y379.522
G01 X368.401 Y375.402
G01 X376.716 Y370.784
G01 X385.711 Y365.719
G01 X395.105 Y360.176
G01 X404.409 Y354.289
G01 X413.183 Y348.175
G01 X421.202 Y341.906
G01 X428.029 Y335.679
G01 X433.470 Y329.573
G01 X437.265 Y323.800
G01 X439.286 Y318.427
G01 X439.483 Y313.649
G01 X437.823 Y309.543
G01 X434.470 Y306.163
G01 X429.577 Y303.502
G01 X423.418 Y301.593
G01 X416.211 Y300.370
G01 X408.368 Y299.731
G01 X400.144 Y299.504
G01 X392.019 Y299.556
G01 X384.167 Y299.709
G01 X377.041 Y299.711
G01 X370.920 Y299.348
G01 X365.952 Y298.444
G01 X362.327 Y296.792
G01 X360.095 Y294.231
G01 X359.305 Y290.666
G01 X359.882 Y285.978
G01 X361.667 Y280.226
G01 X364.534 Y273.336
G01 X368.216 Y265.514
G01 X372.451 Y256.826
G01 X376.908 Y247.530
G01 X381.344 Y237.783
G01 X385.397 Y227.948
G01 X388.870 Y218.173
G01 X391.466 Y208.853
G01 X392.996 Y200.266
G01 X393.329 Y192.563
G01 X392.365 Y186.107
G01 X390.120 Y180.890
G01 X386.616 Y177.160
G01 X381.898 Y174.868
G01 X376.166 Y174.033
G01 X369.574 Y174.516
G01 X362.363 Y176.183
G01 X354.725 Y178.800
G01 X346.952 Y182.066
G01 X339.166 Y185.754
G01 X331.740 Y189.405
G01 X324.691 Y192.800
G01 X318.292 Y195.535
G01 X312.620 Y197.331
G01 X307.716 Y197.889
G01 X303.638 Y197.055
G01 X300.308 Y194.636
G01 X297.707 Y190.574
G01 X295.664 Y184.865
G01 X294.100 Y177.645
G01 X292.841 Y168.971
G01 X291.709 Y159.223
G01 X290.550 Y148.543
G01 X289.228 Y137.365
G01 X287.582 Y125.977
G01 X285.469 Y114.897
G01 X282.863 Y104.300
G01 X279.642 Y94.647
G01 X275.854 Y86.377
G01 X271.454 Y79.541
G01 X266.565 Y74.459
G01 X261.161 Y71.166
G01 X255.404 Y69.801
G01 X249.373 Y70.216
G01 X243.188 Y72.326
G01 X236.910 Y75.908
G01 X230.725 Y80.653
G01 X224.632 Y86.303
G01 X218.752 Y92.436
G01 X213.060 Y98.696
G01 X207.621 Y104.605
G01 X202.371 Y109.934
G01 X197.359 Y118.504
G01 X192.624 Y125.786
G01 X188.045 Y131.527
G01 X183.548 Y135.550
G01 X179.021 Y137.833
G01 X174.377 Y138.353
G01 X169.524 Y137.216
G01 X164.418 Y134.624
G01 X158.971 Y130.766
G01 X153.236 Y126.010
G01 X147.144 Y120.631
G01 X140.827 Y115.061
G01 X134.266 Y109.676
G01 X127.634 Y104.902
G01 X120.985 Y100.997
G01 X114.497 Y98.306
G01 X108.339 Y97.126
G01 X102.579 Y97.581
G01 X97.394 Y99.774
G01 X92.836 Y103.811
G01 X89.074 Y109.510
G01 X86.076 Y116.856
G01 X83.867 Y125.505
G01 X82.454 Y135.361
G01 X81.724 Y145.938
G01 X81.558 Y157.008
G01 X81.856 Y168.147
G01 X82.389 Y179.058
G01 X83.017 Y189.340
G01 X83.486 Y198.754
G01 X83.589 Y207.012
G01 X83.165 Y213.901
G01 X81.995 Y219.339
G01 X79.988 Y223.241
G01 X77.019 Y225.665
G01 X73.046 Y226.668
G01 X68.041 Y226.421
G01 X62.103 Y225.153
G01 X55.305 Y223.073
G01 X47.858 Y220.522
G01 X39.894 Y217.787
G01 X31.784 Y215.199
G01 X23.627 Y213.019
G01 X15.832 Y211.515
G01 X8.622 Y210.947
G01 X2.262 Y211.447
G01 X-3.017 Y213.163
G01 X-7.014 Y216.161
G01 X-9.584 Y220.436
G01 X-10.705 Y225.912
G01 X-10.310 Y232.450
G01 X-8.476 Y239.959
G01 X-5.353 Y248.137
G01 X-1.072 Y256.873
G01 X4.074 Y265.825
G01 X9.863 Y274.837
G01 X15.853 Y283.546
G01 X21.892 Y291.909
G01 X27.466 Y299.572
G01 X32.394 Y306.542
G01 X36.315 Y312.645
G01 X38.956 Y317.794
G01 X40.252 Y322.078
G01 X40.019 Y325.495
G01 X38.206 Y328.130
G01 X34.867 Y330.106
G01 X30.137 Y331.579
G01 X24.219 Y332.712
G01 X17.322 Y333.651
G01 X9.839 Y334.592
G01 X2.005 Y335.685
G01 X-5.728 Y337.049
G01 X-13.022 Y338.837
G01 X-19.495 Y341.044
G01 X-24.829 Y343.815
G01 X-28.721 Y347.068
G01 X-30.913 Y350.817
G01 X-31.301 Y355.029
G01 X-29.750 Y359.570
G01 X-26.303 Y364.370
G01 X-21.079 Y369.298
G01 X-14.207 Y374.257
G01 X-5.950 Y379.092
G01 X3.387 Y383.772
G01 X13.463 Y388.150
G01 X23.913 Y392.210
G01 X34.284 Y395.876
G01 X44.271 Y399.155
G01 X53.365 Y402.070
G01 X61.406 Y404.689
G01 X69.546 Y406.998
G01 X76.065 Y409.092
G01 X80.864 Y411.066
G01 X83.890 Y412.970
G01 X85.200 Y414.936
G01 X84.921 Y417.018
G01 X83.233 Y419.320
G01 X80.466 Y421.823
G01 X76.904 Y424.561
G01 X72.913 Y427.505
G01 X68.879 Y430.647
G01 X65.199 Y433.825
G01 X62.202 Y437.052
G01 X60.274 Y440.109
G01 X59.663 Y442.915
G01 X60.550 Y445.344
G01 X63.178 Y447.241
G01 X67.500 Y448.510
G01 X73.555 Y449.044
G01 X81.299 Y448.758
G01 X90.412 Y447.651
G01 X100.787 Y445.731
G01 X112.017 Y443.034
G01 X123.427 Y439.796
G01 X123.883 Y439.647
G01 X134.432 Y436.221
G01 X135.938 Y435.660
G01 X145.555 Y432.213
G01 X147.851 Y431.270
G01 X156.562 Y427.861
G01 X159.201 Y426.683
G01 X167.086 Y423.315
G01 X169.779 Y422.011
G01 X176.925 Y418.705
G01 X179.142 Y417.555
G01 X185.668 Y414.289
G01 X187.197 Y413.445
G01 X193.216 Y410.180
G01 X193.658 Y409.921
G01 X198.537 Y407.092
G01 X202.385 Y404.684
G01 X207.968 Y411.172
G01 X208.708 Y411.959
G01 X215.078 Y418.800
G01 X215.190 Y418.910
G01 X221.137 Y424.784
G01 X226.244 Y429.392
G01 X230.407 Y432.709
G01 X233.406 Y434.642
G01 X235.245 Y435.320
G01 X235.850 Y434.813
G01 X235.269 Y433.256
G01 X233.595 Y430.880
G01 X231.044 Y427.895
G01 X227.800 Y424.540
G01 X224.169 Y421.102
G01 X220.436 Y417.786
G01 X216.925 Y414.861
G01 X213.928 Y412.455
G01 X211.819 Y410.791
G01 X210.798 Y409.945
G01 X211.162 Y409.967
G01 X213.055 Y410.832
G01 X216.594 Y412.559
G01 X221.865 Y415.029
G01 X228.490 Y418.007
G01 X228.825 Y418.144
G01 X235.928 Y421.186
G01 X237.272 Y421.700
G01 X244.981 Y424.791
G01 X247.155 Y425.555
G01 X255.602 Y428.673
G01 X258.072 Y429.462
G01 X267.375 Y432.589
G01 X269.877 Y433.308
G01 X280.125 Y436.381
G01 X282.079 Y436.877
G01 X293.269 Y439.762
G01 X294.463 Y440.018
G01 X306.549 Y442.576
G01 X306.552 Y442.576
G01 X318.043 Y444.505
G01 X328.459 Y445.636
G01 X337.688 Y446.035
G01 X345.365 Y445.689
G01 X351.379 Y444.594
G01 X355.586 Y442.871
G01 X358.047 Y440.602
G01 X358.774 Y437.904
G01 X357.925 Y434.910
G01 X355.798 Y431.726
G01 X352.608 Y428.460
G01 X348.693 Y425.228
G01 X344.502 Y422.123
G01 X340.303 Y419.174
G01 X336.572 Y416.411
G01 X333.661 Y413.854
G01 X331.870 Y411.462
G01 X331.474 Y409.180
G01 X332.688 Y406.946
G01 X335.591 Y404.673
G01 X338.759 Y402.301
G01 X343.603 Y399.736
G01 X350.034 Y396.943
G01 X357.868 Y393.797
G01 X366.773 Y390.279
G01 X376.411 Y386.385
G01 X386.538 Y382.048
G01 X396.584 Y377.373
G01 X406.305 Y372.377
G01 X415.207 Y367.154
G01 X423.047 Y361.765
G01 X429.448 Y356.398
G01 X434.212 Y351.144
G01 X437.180 Y346.121
G01 X438.276 Y341.448
G01 X437.446 Y337.267
G01 X434.851 Y333.584
G01 X430.635 Y330.503
G01 X424.976 Y328.029
G01 X418.224 Y326.094
G01 X410.741 Y324.700
G01 X402.805 Y323.686
G01 X394.858 Y322.962
G01 X387.195 Y322.364
G01 X380.240 Y321.737
G01 X374.175 Y320.877
G01 X369.380 Y319.579
G01 X365.942 Y317.696
G01 X363.976 Y315.112
G01 X363.541 Y311.615
G01 X364.566 Y307.220
G01 X367.000 Y301.807
G01 X370.542 Y295.474
G01 X375.052 Y288.192
G01 X380.206 Y280.132
G01 X385.711 Y271.465
G01 X391.207 Y262.363
G01 X396.401 Y253.076
G01 X401.018 Y243.808
G01 X404.728 Y234.885
G01 X407.318 Y226.500
G01 X408.661 Y218.933
G01 X408.587 Y212.373
G01 X407.075 Y206.993
G01 X404.177 Y202.864
G01 X399.938 Y200.108
G01 X394.465 Y198.689
G01 X388.018 Y198.505
G01 X380.764 Y199.444
G01 X372.976 Y201.335
G01 X364.966 Y203.892
G01 X356.893 Y206.867
G01 X349.137 Y209.912
G01 X341.767 Y212.793
G01 X335.127 Y215.073
G01 X329.257 Y216.540
G01 X324.308 Y216.908
G01 X320.273 Y215.984
G01 X317.220 Y213.547
G01 X314.990 Y209.602
G01 X313.571 Y204.078
G01 X312.779 Y197.023
G01 X312.435 Y188.672
G01 X312.399 Y179.067
G01 X312.450 Y168.603
G01 X312.375 Y157.619
G01 X312.015 Y146.323
G01 X311.228 Y135.228
G01 X309.877 Y124.596
G01 X307.863 Y114.851
G01 X305.120 Y106.227
G01 X301.675 Y99.090
G01 X297.483 Y93.538
G01 X292.673 Y89.755
G01 X287.275 Y87.816
G01 X281.425 Y87.624
G01 X275.224 Y89.122
G01 X268.834 Y92.090
G01 X262.317 Y96.269
G01 X255.831 Y101.386
G01 X249.519 Y107.004
G01 X243.369 Y112.802
G01 X237.531 Y118.375
G01 X231.938 Y123.298
G01 X226.641 Y127.279
G01 X221.566 Y130.029
G01 X216.704 Y131.275
G01 X211.935 Y130.808
G01 X207.203 Y128.603
G01 X202.370 Y124.634
G01 X197.474 Y123.328
G01 X192.444 Y120.463
G01 X187.279 Y116.362
G01 X181.848 Y111.212
G01 X176.180 Y105.438
G01 X170.279 Y99.443
G01 X164.154 Y93.560
G01 X157.884 Y88.211
G01 X151.516 Y83.726
G01 X145.195 Y80.439
G01 X138.969 Y78.633
G01 X133.062 Y78.543
G01 X127.444 Y80.216
G01 X122.350 Y83.721
G01 X117.793 Y89.066
G01 X113.898 Y96.084
G01 X110.603 Y104.573
G01 X108.004 Y114.227
G01 X106.017 Y124.879
G01 X104.575 Y136.042
G01 X103.579 Y147.342
G01 X102.891 Y158.486
G01 X102.346 Y169.029
G01 X101.764 Y178.744
G01 X100.983 Y187.233
G01 X99.814 Y194.404
G01 X98.084 Y199.993
G01 X95.675 Y204.033
G01 X92.499 Y206.449
G01 X88.418 Y207.315
G01 X83.522 Y206.852
G01 X77.718 Y205.213
G01 X71.214 Y202.713
G01 X64.017 Y199.581
G01 X56.356 Y196.182
G01 X48.475 Y192.864
G01 X40.534 Y189.932
G01 X32.846 Y187.706
G01 X25.569 Y186.377
G01 X19.058 Y186.210
G01 X13.435 Y187.351
G01 X8.976 Y189.875
G01 X5.730 Y193.817
G01 X3.848 Y199.087
G01 X3.336 Y205.659
G01 X4.170 Y213.279
G01 X6.247 Y221.790
G01 X9.408 Y230.909
G01 X13.418 Y240.436
G01 X18.072 Y250.052
G01 X23.050 Y259.472
G01 X28.055 Y268.500
G01 X32.712 Y276.846
G01 X36.800 Y284.402
G01 X40.036 Y291.014
G01 X42.132 Y296.599
G01 X42.945 Y301.147
G01 X42.339 Y304.686
G01 X40.247 Y307.267
G01 X36.678 Y309.029
G01 X31.793 Y310.123
G01 X25.699 Y310.749
G01 X18.651 Y311.055
G01 X10.899 Y311.298
G01 X2.800 Y311.619
G01 X-5.251 Y312.229
G01 X-12.996 Y313.275
G01 X-19.947 Y314.857
G01 X-25.887 Y317.066
G01 X-30.419 Y319.942
G01 X-33.421 Y323.496
G01 X-34.637 Y327.668
G01 X-34.008 Y332.429
G01 X-31.513 Y337.601
G01 X-27.231 Y343.161
G01 X-21.296 Y348.907
G01 X-13.962 Y354.729
G01 X-5.522 Y360.494
G01 X3.778 Y366.084
G01 X13.438 Y371.352
G01 X23.209 Y376.316
G01 X32.584 Y380.827
G01 X41.204 Y384.887
G01 X48.796 Y388.547
G01 X55.022 Y391.790
G01 X59.697 Y394.700
G01 X62.683 Y397.362
G01 X63.935 Y399.852
G01 X63.476 Y402.246
G01 X61.409 Y404.692
G01 X59.473 Y407.181
G01 X56.361 Y409.779
G01 X52.480 Y412.523
G01 X48.125 Y415.472
G01 X43.658 Y418.561
G01 X39.521 Y421.793
G01 X36.108 Y425.109
G01 X33.685 Y428.394
G01 X32.600 Y431.590
G01 X33.093 Y434.530
G01 X35.370 Y437.140
G01 X39.377 Y439.337
G01 X45.269 Y440.950
G01 X52.846 Y441.971
G01 X62.079 Y442.270
G01 X72.538 Y441.912
G01 X84.151 Y440.832
G01 X96.377 Y439.126
G01 X108.284 Y436.996
G01 X108.976 Y436.844
G01 X119.990 Y434.499
G01 X121.505 Y434.109
G01 X131.603 Y431.662
G01 X133.629 Y431.076
G01 X142.874 Y428.546
G01 X144.964 Y427.873
G01 X153.428 Y425.314
G01 X155.173 Y424.705
G01 X162.962 Y422.155
G01 X164.045 Y421.753
G01 X171.284 Y419.183
G01 X171.302 Y419.177
G01 X176.956 Y417.087
G01 X180.831 Y415.660
G01 X183.053 Y414.954
G01 X183.663 Y415.053
G01 X182.867 Y415.938
G01 X180.915 Y417.580
G01 X178.060 Y419.865
G01 X174.635 Y422.696
G01 X170.969 Y425.871
G01 X167.394 Y429.190
G01 X164.216 Y432.414
G01 X161.704 Y435.332
G01 X160.139 Y437.683
G01 X159.663 Y439.262
G01 X160.444 Y439.859
G01 X162.497 Y439.358
G01 X165.800 Y437.611
G01 X170.353 Y434.540
G01 X175.920 Y430.221
G01 X182.409 Y424.650
G01 X189.464 Y418.061
G01 X189.480 Y418.046
G01 X195.798 Y411.764
G01 X196.996 Y410.457
G01 X202.376 Y404.684
G01 X207.198 Y407.804
G01 X212.971 Y411.399
G01 X214.773 Y412.417
G01 X221.097 Y416.116
G01 X223.625 Y417.441
G01 X230.630 Y421.277
G01 X233.714 Y422.774
G01 X241.530 Y426.724
G01 X244.615 Y428.099
G01 X253.333 Y432.107
G01 X256.117 Y433.231
G01 X265.815 Y437.269
G01 X267.735 Y437.971
G01 X278.392 Y441.897
G01 X279.287 Y442.185
G01 X290.256 Y445.654
G01 X300.466 Y448.342
G01 X309.461 Y450.138
G01 X317.119 Y451.042
G01 X323.224 Y451.053
G01 X327.586 Y450.243
G01 X330.293 Y448.703
G01 X331.327 Y446.568
G01 X330.866 Y443.952
G01 X329.100 Y441.011
G01 X326.306 Y437.875
G01 X322.798 Y434.702
G01 X318.923 Y431.580
G01 X315.074 Y428.630
G01 X311.614 Y425.897
G01 X308.986 Y423.471
G01 X307.394 Y421.314
G01 X307.166 Y419.405
G01 X308.541 Y417.709
G01 X311.673 Y416.162
G01 X316.522 Y414.668
G01 X323.158 Y413.120
G01 X331.387 Y411.445
G01 X341.067 Y409.510
G01 X351.894 Y407.290
G01 X363.632 Y404.671
G01 X374.276 Y401.660
G01 X385.060 Y398.292
G01 X395.441 Y394.570
G01 X405.195 Y390.484
G01 X413.884 Y386.168
G01 X421.215 Y381.666
G01 X426.870 Y377.106
G01 X430.769 Y372.570
G01 X432.743 Y368.172
G01 X432.827 Y364.034
G01 X430.990 Y360.222
G01 X427.502 Y356.827
G01 X422.517 Y353.846
G01 X416.321 Y351.327
G01 X409.269 Y349.225
G01 X401.764 Y347.498
G01 X394.082 Y346.062
G01 X386.720 Y344.787
G01 X379.975 Y343.513
G01 X374.149 Y342.171
G01 X369.519 Y340.503
G01 X366.356 Y338.433
G01 X364.716 Y335.755
G01 X364.648 Y332.415
G01 X366.167 Y328.293
G01 X369.123 Y323.321
G01 X373.361 Y317.550
G01 X378.672 Y310.929
G01 X384.678 Y303.631
G01 X391.171 Y295.671
G01 X397.712 Y287.296
G01 X404.023 Y278.652
G01 X409.736 Y270.010
G01 X414.572 Y261.532
G01 X418.262 Y253.510
G01 X420.582 Y246.129
G01 X421.428 Y239.622
G01 X420.760 Y234.036
G01 X418.493 Y229.647
G01 X414.798 Y226.441
G01 X409.697 Y224.440
G01 X403.466 Y223.592
G01 X396.315 Y223.812
G01 X388.539 Y224.908
G01 X380.322 Y226.695
G01 X372.087 Y228.929
G01 X364.014 Y231.308
G01 X356.466 Y233.534
G01 X349.557 Y235.349
G01 X343.572 Y236.424
G01 X338.495 Y236.558
G01 X334.567 Y235.486
G01 X331.695 Y233.051
G01 X329.839 Y229.193
G01 X328.962 Y223.882
G01 X328.908 Y217.063
G01 X329.438 Y209.020
G01 X330.398 Y199.776
G01 X331.552 Y189.687
G01 X332.699 Y178.907
G01 X333.620 Y167.893
G01 X334.099 Y156.915
G01 X333.983 Y146.369
G01 X333.135 Y136.544
G01 X331.491 Y127.812
G01 X328.943 Y120.374
G01 X325.553 Y114.494
G01 X321.317 Y110.261
G01 X316.310 Y107.785
G01 X310.693 Y107.051
G01 X304.519 Y107.976
G01 X298.005 Y110.317
G01 X291.243 Y113.962
G01 X284.445 Y118.468
G01 X277.680 Y123.583
G01 X271.128 Y128.910
G01 X264.825 Y134.081
G01 X258.928 Y138.647
G01 X253.341 Y142.416
G01 X248.180 Y144.908
G01 X243.344 Y145.946
G01 X238.825 Y145.337
G01 X234.502 Y142.987
G01 X230.286 Y138.895
G01 X226.132 Y133.065
G01 X221.870 Y125.686
G01 X217.438 Y117.036
G01 X212.748 Y107.241
G01 X207.745 Y96.856
G01 X202.365 Y86.059
G01 X196.701 Y79.733
G01 X190.810 Y73.808
G01 X184.781 Y68.735
G01 X178.591 Y64.822
G01 X172.435 Y62.408
G01 X166.307 Y61.677
G01 X160.397 Y62.784
G01 X154.728 Y65.757
G01 X149.444 Y70.601
G01 X144.610 Y77.155
G01 X140.286 Y85.332
G01 X136.495 Y94.769
G01 X133.226 Y105.267
G01 X130.473 Y116.330
G01 X128.146 Y127.699
G01 X126.163 Y138.893
G01 X124.401 Y149.659
G01 X122.712 Y159.471
G01 X120.947 Y168.242
G01 X118.993 Y175.563
G01 X116.632 Y181.319
G01 X113.805 Y185.428
G01 X110.334 Y187.868
G01 X106.188 Y188.668
G01 X101.327 Y188.005
G01 X95.731 Y186.058
G01 X89.486 Y183.133
G01 X82.654 Y179.537
G01 X75.372 Y175.549
G01 X67.772 Y171.575
G01 X60.127 Y167.952
G01 X52.572 Y164.991
G01 X45.423 Y163.000
G01 X38.772 Y162.166
G01 X32.969 Y162.731
G01 X28.041 Y164.746
G01 X24.266 Y168.315
G01 X21.642 Y173.375
G01 X20.274 Y179.799
G01 X20.127 Y187.486
G01 X21.127 Y196.214
G01 X23.146 Y205.625
G01 X26.019 Y215.577
G01 X29.495 Y225.674
G01 X33.385 Y235.707
G01 X37.305 Y245.270
G01 X41.079 Y254.275
G01 X44.320 Y262.368
G01 X46.817 Y269.464
G01 X48.358 Y275.433
G01 X48.678 Y280.212
G01 X47.709 Y283.837
G01 X45.351 Y286.363
G01 X41.666 Y287.924
G01 X36.644 Y288.639
G01 X30.430 Y288.719
G01 X23.312 Y288.407
G01 X15.478 Y287.895
G01 X7.290 Y287.454
G01 X-1.012 Y287.269
G01 X-9.008 Y287.522
G01 X-16.404 Y288.356
G01 X-22.793 Y289.959
G01 X-28.012 Y292.320
G01 X-31.686 Y295.538
G01 X-33.712 Y299.582
G01 X-33.971 Y304.361
G01 X-32.424 Y309.820
G01 X-29.150 Y315.810
G01 X-24.178 Y322.229
G01 X-17.827 Y328.874
G01 X-10.349 Y335.558
G01 X-1.996 Y342.202
G01 X6.786 Y348.599
G01 X15.736 Y354.692
G01 X24.399 Y360.306
G01 X32.423 Y365.451
G01 X39.404 Y370.036
G01 X45.171 Y374.130
G01 X49.418 Y377.708
G01 X52.065 Y380.880
G01 X52.957 Y383.678
G01 X52.192 Y386.234
G01 X49.786 Y388.645
G01 X45.951 Y390.999
G01 X40.947 Y393.398
G01 X35.117 Y395.913
G01 X28.733 Y398.618
G01 X22.308 Y401.540
G01 X16.043 Y404.688
G01 X12.040 Y408.005
G01 X9.036 Y411.435
G01 X7.373 Y414.897
G01 X7.252 Y418.345
G01 X8.945 Y421.594
G01 X12.473 Y424.652
G01 X17.918 Y427.330
G01 X25.146 Y429.595
G01 X34.048 Y431.327
G01 X44.462 Y432.522
G01 X56.019 Y433.139
G01 X68.343 Y433.183
G01 X81.175 Y432.666
G01 X93.383 Y431.761
G01 X94.022 Y431.689
G01 X105.336 Y430.539
G01 X106.538 Y430.368
G01 X117.001 Y429.013
G01 X118.341 Y428.784
G01 X128.005 Y427.300
G01 X129.127 Y427.083
G01 X138.086 Y425.517
G01 X138.517 Y425.426
G01 X146.457 Y423.941
G01 X152.612 Y422.784
G01 X157.072 Y422.073
G01 X159.769 Y421.886
G01 X160.829 Y422.323
G01 X160.397 Y423.365
G01 X158.683 Y425.055
G01 X156.028 Y427.279
G01 X152.776 Y429.948
G01 X149.156 Y432.977
G01 X145.651 Y436.123
G01 X142.507 Y439.256
G01 X140.048 Y442.121
G01 X138.601 Y444.546
G01 X138.312 Y446.272
G01 X139.344 Y447.201
G01 X141.760 Y447.118
G01 X145.630 Y445.901
G01 X150.808 Y443.544
G01 X157.264 Y439.933
G01 X164.659 Y435.210
G01 X172.915 Y429.407
G01 X180.656 Y423.534
G01 X181.678 Y422.684
G01 X188.589 Y417.092
G01 X190.596 Y415.296
G01 X196.677 Y410.065
G01 X199.454 Y407.395
G01 X202.377 Y404.684
G01 X207.847 Y408.888
G01 X212.613 Y412.103
G01 X218.927 Y416.534
G01 X222.418 Y418.713
G01 X229.585 Y423.342
G01 X232.823 Y425.205
G01 X240.930 Y430.017
G01 X243.571 Y431.416
G01 X252.656 Y436.317
G01 X254.273 Y437.099
G01 X264.281 Y441.904
G01 X264.495 Y441.996
G01 X274.109 Y446.072
G01 X282.627 Y449.159
G01 X289.980 Y451.250
G01 X295.843 Y452.302
G01 X300.190 Y452.380
G01 X302.910 Y451.554
G01 X304.101 Y449.959
G01 X303.834 Y447.731
G01 X302.290 Y445.031
G01 X299.742 Y442.046
G01 X296.493 Y438.926
G01 X292.841 Y435.825
G01 X289.204 Y432.880
G01 X285.879 Y430.193
G01 X283.341 Y427.888
G01 X281.829 Y425.972
G01 X281.639 Y424.441
G01 X283.036 Y423.292
G01 X286.115 Y422.469
G01 X290.977 Y421.904
G01 X297.586 Y421.460
G01 X305.913 Y421.059
G01 X315.703 Y420.607
G01 X326.736 Y419.948
G01 X326.738 Y419.948
G01 X338.552 Y419.013
G01 X338.651 Y419.001
G01 X351.236 Y417.691
G01 X363.938 Y415.978
G01 X376.507 Y413.799
G01 X388.454 Y411.162
G01 X399.342 Y408.100
G01 X408.986 Y404.654
G01 X415.462 Y400.943
G01 X420.225 Y397.052
G01 X423.047 Y393.107
G01 X423.956 Y389.163
G01 X422.962 Y385.361
G01 X420.207 Y381.776
G01 X415.967 Y378.446
G01 X410.374 Y375.425
G01 X403.901 Y372.748
G01 X396.834 Y370.376
G01 X389.637 Y368.279
G01 X382.608 Y366.366
G01 X376.129 Y364.549
G01 X370.620 Y362.714
G01 X366.315 Y360.745
G01 X363.430 Y358.489
G01 X362.072 Y355.830
G01 X362.427 Y352.662
G01 X364.387 Y348.880
G01 X367.889 Y344.433
G01 X372.796 Y339.260
G01 X378.798 Y333.392
G01 X385.726 Y326.844
G01 X393.087 Y319.779
G01 X400.663 Y312.198
G01 X407.990 Y304.409
G01 X414.827 Y296.433
G01 X420.745 Y288.536
G01 X425.493 Y280.998
G01 X428.875 Y273.898
G01 X430.686 Y267.481
G01 X430.865 Y261.884
G01 X429.361 Y257.266
G01 X426.244 Y253.649
G01 X421.651 Y251.146
G01 X415.746 Y249.646
G01 X408.827 Y249.113
G01 X401.062 Y249.422
G01 X392.889 Y250.412
G01 X384.512 Y251.846
G01 X376.332 Y253.454
G01 X368.536 Y255.058
G01 X361.494 Y256.281
G01 X355.361 Y256.939
G01 X350.303 Y256.725
G01 X346.423 Y255.508
G01 X343.769 Y253.040
G01 X342.274 Y249.307
G01 X341.894 Y244.162
G01 X342.490 Y237.704
G01 X343.825 Y229.978
G01 X345.740 Y221.181
G01 X347.974 Y211.428
G01 X350.281 Y201.123
G01 X352.399 Y190.393
G01 X354.135 Y179.711
G01 X355.212 Y169.306
G01 X355.536 Y159.508
G01 X354.938 Y150.759
G01 X353.345 Y143.154
G01 X350.731 Y137.013
G01 X347.134 Y132.396
G01 X342.596 Y129.470
G01 X337.185 Y128.221
G01 X331.139 Y128.550
G01 X324.514 Y130.311
G01 X317.562 Y133.298
G01 X310.408 Y137.238
G01 X303.303 Y141.771
G01 X296.288 Y146.616
G01 X289.620 Y151.305
G01 X283.289 Y155.601
G01 X277.471 Y159.002
G01 X272.145 Y161.310
G01 X267.329 Y162.186
G01 X262.998 Y161.505
G01 X259.060 Y159.060
G01 X255.454 Y154.941
G01 X252.043 Y149.070
G01 X248.752 Y141.635
G01 X245.416 Y132.787
G01 X241.981 Y122.918
G01 X238.275 Y112.203
G01 X234.275 Y101.157
G01 X229.892 Y90.025
G01 X225.132 Y79.367
G01 X219.936 Y69.434
G01 X214.358 Y60.612
G01 X208.493 Y53.235

