;  Created by Sandify
;  https://sandify.org
;  Version: 0.2.6
;
;  Machine type: Rectangular
;    Min X (mm): 0
;    Max X (mm): 500
;    Min Y (mm): 0
;    Max Y (mm): 500
;  Content type: shape
;  Layer:
;    Shape: FileImport
;    Name: goulet_loveballoon_ee.thr
;    From file:: goulet_loveballoon_ee.thr
;    Aspect Ratio: true
;    Comments: 
;    Visible: true
;    Initial width: 14
;    Initial height: 14
;    X offset: 0
;    Y offset: 34
;    Rotate (degrees): 0
;    Reverse path: false
;    Fine tuning:
;      Connect to next layer: line
;      Draw portion of path (%): 100
;      Backtrack at end (%): 0
;      Rotate starting point (%): 0
;  Reverse export path: false
;
; File name: 'loveballoon'
; File type: gcode
;

G01 X191.936 Y17.486
G01 X152.854 Y17.486
G01 X152.948 Y18.130
G01 X153.330 Y21.861
G01 X156.568 Y40.839
G01 X160.519 Y55.886
G01 X168.858 Y80.181
G01 X173.647 Y92.424
G01 X174.120 Y92.903
G01 X174.590 Y93.383
G01 X177.077 Y95.542
G01 X179.700 Y96.879
G01 X184.435 Y98.672
G01 X189.114 Y103.429
G01 X189.704 Y105.766
G01 X189.983 Y110.032
G01 X188.555 Y112.403
G01 X186.171 Y113.804
G01 X182.407 Y113.746
G01 X178.654 Y110.862
G01 X176.758 Y110.859
G01 X175.570 Y113.513
G01 X172.933 Y116.496
G01 X175.570 Y113.513
G01 X176.758 Y110.859
G01 X178.654 Y110.862
G01 X182.407 Y113.746
G01 X186.171 Y113.804
G01 X188.555 Y112.403
G01 X189.983 Y110.032
G01 X189.704 Y105.766
G01 X189.114 Y103.429
G01 X184.435 Y98.672
G01 X179.700 Y96.879
G01 X177.077 Y95.542
G01 X174.590 Y93.383
G01 X174.120 Y92.903
G01 X173.639 Y93.374
G01 X171.474 Y96.929
G01 X165.739 Y103.383
G01 X164.822 Y106.441
G01 X164.529 Y106.953
G01 X164.935 Y114.059
G01 X164.460 Y114.499
G01 X164.925 Y114.984
G01 X171.983 Y117.431
G01 X172.453 Y116.946
G01 X172.933 Y116.496
G01 X172.453 Y116.946
G01 X172.926 Y117.415
G01 X174.282 Y118.059
G01 X181.697 Y118.275
G01 X185.183 Y118.504
G01 X185.678 Y118.237
G01 X193.012 Y117.754
G01 X196.522 Y117.650
G01 X201.751 Y118.990
G01 X208.726 Y122.240
G01 X208.868 Y122.309
G01 X212.502 Y124.442
G01 X217.169 Y129.209
G01 X220.596 Y135.927
G01 X221.303 Y141.036
G01 X221.758 Y141.538
G01 X222.249 Y141.043
G01 X224.619 Y139.648
G01 X227.912 Y140.172
G01 X230.725 Y143.014
G01 X231.186 Y144.445
G01 X231.642 Y144.923
G01 X232.121 Y144.452
G01 X233.678 Y143.273
G01 X235.930 Y141.677
G01 X239.695 Y141.709
G01 X242.511 Y144.553
G01 X242.632 Y145.474
G01 X242.960 Y145.990
G01 X242.315 Y149.251
G01 X241.007 Y152.576
G01 X239.108 Y154.433
G01 X231.510 Y158.157
G01 X231.504 Y159.087
G01 X231.510 Y158.157
G01 X239.108 Y154.433
G01 X241.007 Y152.576
G01 X242.315 Y149.251
G01 X242.960 Y145.990
G01 X242.632 Y145.474
G01 X242.511 Y144.553
G01 X239.695 Y141.709
G01 X235.930 Y141.677
G01 X233.678 Y143.273
G01 X232.121 Y144.452
G01 X231.642 Y144.923
G01 X231.186 Y144.445
G01 X230.725 Y143.014
G01 X227.912 Y140.172
G01 X224.619 Y139.648
G01 X222.249 Y141.043
G01 X221.758 Y141.538
G01 X221.290 Y142.004
G01 X220.751 Y148.135
G01 X221.216 Y148.608
G01 X221.409 Y149.450
G01 X225.970 Y154.989
G01 X229.605 Y160.006
G01 X230.069 Y160.504
G01 X230.548 Y160.006
G01 X231.030 Y159.548
G01 X231.504 Y159.087
G01 X231.030 Y159.548
G01 X231.494 Y160.016
G01 X236.752 Y158.798
G01 X244.895 Y154.701
G01 X245.552 Y154.274
G01 X250.465 Y150.792
G01 X252.352 Y150.810
G01 X253.819 Y160.673
G01 X254.906 Y165.030
G01 X257.923 Y171.071
G01 X258.952 Y173.374
G01 X262.491 Y178.042
G01 X265.254 Y182.081
G01 X265.712 Y182.567
G01 X266.190 Y182.102
G01 X267.143 Y182.100
G01 X266.983 Y180.244
G01 X264.615 Y176.105
G01 X262.730 Y173.406
G01 X260.067 Y168.387
G01 X259.293 Y165.501
G01 X259.636 Y160.266
G01 X260.162 Y157.911
G01 X261.278 Y155.143
G01 X263.666 Y152.794
G01 X265.656 Y152.066
G01 X266.462 Y151.750
G01 X268.865 Y151.439
G01 X270.791 Y152.273
G01 X271.689 Y152.423
G01 X274.950 Y155.756
G01 X277.250 Y161.921
G01 X277.722 Y162.393
G01 X278.195 Y161.922
G01 X279.766 Y160.721
G01 X284.365 Y158.680
G01 X288.147 Y158.715
G01 X291.918 Y160.633
G01 X293.429 Y163.922
G01 X294.190 Y167.756
G01 X293.692 Y170.113
G01 X303.135 Y166.279
G01 X309.307 Y166.011
G01 X314.006 Y167.963
G01 X317.755 Y171.760
G01 X319.131 Y175.078
G01 X319.110 Y178.849
G01 X318.279 Y181.716
G01 X314.599 Y190.548
G01 X314.241 Y192.029
G01 X319.395 Y192.721
G01 X325.608 Y194.825
G01 X331.630 Y200.212
G01 X331.631 Y200.213
G01 X325.611 Y194.827
G01 X325.608 Y194.825
G01 X319.395 Y192.721
G01 X314.241 Y192.029
G01 X314.599 Y190.548
G01 X318.279 Y181.716
G01 X319.110 Y178.849
G01 X319.131 Y175.078
G01 X317.755 Y171.760
G01 X314.006 Y167.963
G01 X309.307 Y166.011
G01 X303.135 Y166.279
G01 X293.692 Y170.113
G01 X294.190 Y167.756
G01 X293.429 Y163.922
G01 X291.918 Y160.633
G01 X288.147 Y158.715
G01 X284.365 Y158.680
G01 X279.766 Y160.721
G01 X278.195 Y161.922
G01 X277.722 Y162.393
G01 X277.250 Y161.921
G01 X274.950 Y155.756
G01 X271.689 Y152.423
G01 X270.791 Y152.273
G01 X268.865 Y151.439
G01 X266.462 Y151.750
G01 X265.656 Y152.066
G01 X263.666 Y152.794
G01 X261.278 Y155.143
G01 X260.162 Y157.911
G01 X259.636 Y160.266
G01 X259.293 Y165.501
G01 X260.067 Y168.387
G01 X262.730 Y173.406
G01 X264.615 Y176.105
G01 X266.983 Y180.244
G01 X267.143 Y182.100
G01 X267.596 Y183.535
G01 X267.117 Y183.999
G01 X267.596 Y183.535
G01 X267.143 Y182.100
G01 X266.190 Y182.102
G01 X265.712 Y182.567
G01 X265.715 Y183.500
G01 X266.647 Y183.530
G01 X267.117 Y183.999
G01 X267.585 Y184.469
G01 X267.583 Y185.417
G01 X268.042 Y185.889
G01 X268.520 Y185.427
G01 X272.931 Y182.369
G01 X284.681 Y179.124
G01 X287.006 Y178.528
G01 X287.483 Y178.064
G01 X287.959 Y177.600
G01 X291.062 Y174.155
G01 X293.692 Y170.113
G01 X291.062 Y174.155
G01 X287.959 Y177.600
G01 X287.483 Y178.064
G01 X287.938 Y178.553
G01 X287.171 Y180.511
G01 X285.697 Y187.513
G01 X284.736 Y195.478
G01 X283.615 Y199.796
G01 X279.611 Y208.197
G01 X283.615 Y199.796
G01 X284.736 Y195.478
G01 X285.697 Y187.513
G01 X287.171 Y180.511
G01 X287.938 Y178.553
G01 X287.483 Y178.064
G01 X287.006 Y178.528
G01 X284.681 Y179.124
G01 X272.931 Y182.369
G01 X268.520 Y185.427
G01 X268.042 Y185.889
G01 X268.506 Y186.374
G01 X271.486 Y191.101
G01 X273.832 Y195.251
G01 X276.192 Y200.224
G01 X276.540 Y201.020
G01 X277.804 Y206.596
G01 X278.188 Y208.655
G01 X279.159 Y208.655
G01 X279.611 Y208.197
G01 X279.159 Y208.655
G01 X279.611 Y209.138
G01 X285.272 Y209.398
G01 X287.548 Y209.965
G01 X288.653 Y210.453
G01 X294.582 Y213.562
G01 X296.668 Y214.773
G01 X299.608 Y216.651
G01 X299.827 Y217.363
G01 X300.281 Y217.850
G01 X308.304 Y220.278
G01 X308.761 Y220.756
G01 X309.252 Y220.288
G01 X315.847 Y220.137
G01 X319.577 Y219.310
G01 X320.144 Y219.126
G01 X327.214 Y215.762
G01 X329.611 Y213.422
G01 X331.039 Y210.129
G01 X332.012 Y209.185
G01 X332.966 Y209.202
G01 X336.751 Y215.802
G01 X340.226 Y222.632
G01 X342.308 Y227.179
G01 X343.871 Y230.177
G01 X345.224 Y235.327
G01 X345.827 Y242.383
G01 X346.784 Y242.386
G01 X351.203 Y239.344
G01 X359.534 Y236.244
G01 X369.495 Y235.066
G01 X369.971 Y235.531
G01 X370.457 Y235.076
G01 X371.385 Y235.091
G01 X371.861 Y235.564
G01 X372.345 Y235.087
G01 X381.326 Y232.828
G01 X381.807 Y232.347
G01 X382.289 Y231.883
G01 X391.327 Y223.965
G01 X391.794 Y223.487
G01 X392.300 Y223.018
G01 X395.649 Y216.922
G01 X396.145 Y216.452
G01 X395.663 Y215.965
G01 X396.659 Y210.321
G01 X394.548 Y203.120
G01 X394.389 Y202.279
G01 X390.175 Y197.987
G01 X389.329 Y197.794
G01 X388.190 Y197.203
G01 X385.463 Y196.054
G01 X380.245 Y196.285
G01 X378.428 Y196.630
G01 X369.765 Y199.941
G01 X366.547 Y201.524
G01 X364.880 Y193.898
G01 X363.687 Y190.209
G01 X362.440 Y186.841
G01 X357.304 Y181.604
G01 X354.008 Y180.162
G01 X347.415 Y180.089
G01 X342.664 Y181.924
G01 X336.939 Y187.535
G01 X336.743 Y188.340
G01 X335.698 Y190.010
G01 X333.774 Y195.544
G01 X333.325 Y198.332
G01 X332.570 Y200.227
G01 X333.325 Y198.332
G01 X333.774 Y195.544
G01 X335.698 Y190.010
G01 X336.743 Y188.340
G01 X336.939 Y187.535
G01 X342.664 Y181.924
G01 X347.415 Y180.089
G01 X354.008 Y180.162
G01 X357.304 Y181.604
G01 X362.440 Y186.841
G01 X363.687 Y190.209
G01 X364.880 Y193.898
G01 X366.547 Y201.524
G01 X369.765 Y199.941
G01 X378.428 Y196.630
G01 X380.245 Y196.285
G01 X385.463 Y196.054
G01 X388.190 Y197.203
G01 X389.329 Y197.794
G01 X390.175 Y197.987
G01 X394.389 Y202.279
G01 X394.548 Y203.120
G01 X396.659 Y210.321
G01 X395.663 Y215.965
G01 X396.145 Y216.452
G01 X396.606 Y215.988
G01 X399.343 Y212.179
G01 X399.470 Y211.299
G01 X401.356 Y211.305
G01 X404.139 Y213.370
G01 X404.696 Y213.568
G01 X409.815 Y215.184
G01 X414.025 Y219.477
G01 X414.920 Y224.186
G01 X414.445 Y225.617
G01 X410.649 Y228.388
G01 X408.237 Y228.037
G01 X403.572 Y225.972
G01 X402.610 Y228.780
G01 X398.809 Y231.593
G01 X395.519 Y231.072
G01 X393.639 Y229.177
G01 X393.358 Y227.725
G01 X392.260 Y223.972
G01 X393.358 Y227.725
G01 X393.639 Y229.177
G01 X395.519 Y231.072
G01 X398.809 Y231.593
G01 X402.610 Y228.780
G01 X403.572 Y225.972
G01 X408.237 Y228.037
G01 X410.649 Y228.388
G01 X414.445 Y225.617
G01 X414.920 Y224.186
G01 X414.025 Y219.477
G01 X409.815 Y215.184
G01 X404.696 Y213.568
G01 X404.139 Y213.370
G01 X401.356 Y211.305
G01 X399.470 Y211.299
G01 X399.343 Y212.179
G01 X396.606 Y215.988
G01 X396.145 Y216.452
G01 X395.649 Y216.922
G01 X392.300 Y223.018
G01 X391.794 Y223.487
G01 X392.260 Y223.972
G01 X391.794 Y223.487
G01 X391.327 Y223.965
G01 X382.289 Y231.883
G01 X381.807 Y232.347
G01 X382.286 Y232.829
G01 X386.502 Y233.548
G01 X401.096 Y240.375
G01 X407.221 Y241.113
G01 X407.666 Y241.584
G01 X408.137 Y241.111
G01 X412.914 Y237.382
G01 X418.158 Y237.774
G01 X419.026 Y237.936
G01 X422.322 Y241.249
G01 X422.626 Y242.733
G01 X424.111 Y248.827
G01 X428.404 Y247.649
G01 X430.740 Y247.019
G01 X435.055 Y247.385
G01 X435.947 Y247.531
G01 X439.666 Y251.363
G01 X440.089 Y256.536
G01 X439.761 Y257.072
G01 X437.673 Y261.712
G01 X434.817 Y264.524
G01 X431.822 Y266.167
G01 X431.124 Y266.554
G01 X427.695 Y267.534
G01 X423.951 Y267.928
G01 X416.807 Y268.904
G01 X415.929 Y269.190
G01 X413.500 Y270.435
G01 X411.646 Y270.409
G01 X411.453 Y266.652
G01 X410.620 Y263.856
G01 X410.068 Y262.512
G01 X405.673 Y252.887
G01 X406.241 Y244.881
G01 X405.673 Y252.887
G01 X410.068 Y262.512
G01 X410.620 Y263.856
G01 X411.453 Y266.652
G01 X411.646 Y270.409
G01 X413.500 Y270.435
G01 X415.929 Y269.190
G01 X416.807 Y268.904
G01 X423.951 Y267.928
G01 X427.695 Y267.534
G01 X431.124 Y266.554
G01 X431.822 Y266.167
G01 X434.817 Y264.524
G01 X437.673 Y261.712
G01 X439.761 Y257.072
G01 X440.089 Y256.536
G01 X439.666 Y251.363
G01 X435.947 Y247.531
G01 X435.055 Y247.385
G01 X430.740 Y247.019
G01 X428.404 Y247.649
G01 X424.111 Y248.827
G01 X422.626 Y242.733
G01 X422.322 Y241.249
G01 X419.026 Y237.936
G01 X418.158 Y237.774
G01 X412.914 Y237.382
G01 X408.137 Y241.111
G01 X407.666 Y241.584
G01 X407.193 Y242.055
G01 X407.197 Y242.994
G01 X406.245 Y243.927
G01 X405.766 Y244.389
G01 X406.241 Y244.881
G01 X405.766 Y244.389
G01 X405.290 Y244.873
G01 X403.860 Y245.325
G01 X399.995 Y256.008
G01 X399.791 Y256.522
G01 X398.832 Y258.399
G01 X398.033 Y260.373
G01 X392.304 Y265.984
G01 X389.091 Y267.546
G01 X387.970 Y268.094
G01 X382.848 Y269.663
G01 X380.014 Y269.631
G01 X375.300 Y267.688
G01 X380.014 Y269.631
G01 X382.848 Y269.663
G01 X387.970 Y268.094
G01 X389.091 Y267.546
G01 X392.304 Y265.984
G01 X398.033 Y260.373
G01 X398.832 Y258.399
G01 X399.791 Y256.522
G01 X403.683 Y245.859
G01 X403.860 Y245.325
G01 X405.290 Y244.873
G01 X405.766 Y244.389
G01 X406.245 Y243.927
G01 X407.197 Y242.994
G01 X407.193 Y242.055
G01 X407.666 Y241.584
G01 X407.221 Y241.113
G01 X401.096 Y240.375
G01 X386.502 Y233.548
G01 X382.286 Y232.829
G01 X381.807 Y232.347
G01 X381.326 Y232.828
G01 X372.345 Y235.087
G01 X371.861 Y235.564
G01 X371.372 Y236.019
G01 X370.920 Y236.487
G01 X371.372 Y236.019
G01 X371.861 Y235.564
G01 X371.385 Y235.091
G01 X370.457 Y235.076
G01 X369.971 Y235.531
G01 X369.962 Y236.488
G01 X370.433 Y236.957
G01 X370.920 Y236.487
G01 X370.433 Y236.957
G01 X369.946 Y237.424
G01 X369.238 Y237.654
G01 X366.957 Y241.125
G01 X366.113 Y244.946
G01 X367.019 Y247.778
G01 X368.879 Y249.697
G01 X377.817 Y252.136
G01 X377.823 Y253.090
G01 X375.637 Y256.506
G01 X373.505 Y260.111
G01 X373.462 Y264.837
G01 X374.389 Y266.738
G01 X374.846 Y267.212
G01 X375.300 Y267.688
G01 X374.846 Y267.212
G01 X374.356 Y267.688
G01 X373.899 Y268.142
G01 X374.351 Y268.618
G01 X377.391 Y273.981
G01 X380.985 Y281.863
G01 X381.740 Y283.812
G01 X382.226 Y284.276
G01 X382.688 Y283.817
G01 X388.611 Y278.433
G01 X391.404 Y276.570
G01 X399.338 Y273.130
G01 X406.435 Y273.538
G01 X410.183 Y274.649
G01 X416.237 Y280.849
G01 X416.987 Y282.837
G01 X417.317 Y283.652
G01 X418.977 Y289.373
G01 X417.962 Y297.865
G01 X418.428 Y298.344
G01 X418.914 Y297.877
G01 X423.011 Y292.587
G01 X425.980 Y284.202
G01 X426.462 Y282.800
G01 X427.572 Y280.012
G01 X432.832 Y274.885
G01 X438.069 Y272.755
G01 X443.226 Y272.161
G01 X446.631 Y273.423
G01 X447.466 Y273.622
G01 X451.671 Y277.909
G01 X452.135 Y279.334
G01 X452.097 Y282.151
G01 X451.490 Y283.522
G01 X451.279 Y284.082
G01 X448.986 Y288.587
G01 X446.836 Y291.082
G01 X446.795 Y292.956
G01 X448.174 Y293.586
G01 X448.718 Y293.771
G01 X453.832 Y296.334
G01 X457.108 Y299.678
G01 X458.019 Y302.519
G01 X458.021 Y305.337
G01 X456.538 Y308.642
G01 X452.737 Y312.363
G01 X448.001 Y314.216
G01 X441.394 Y314.146
G01 X436.700 Y313.166
G01 X436.666 Y314.098
G01 X436.184 Y314.562
G01 X436.663 Y315.036
G01 X443.291 Y317.786
G01 X449.828 Y319.899
G01 X458.341 Y319.995
G01 X458.793 Y319.502
G01 X460.677 Y319.534
G01 X460.659 Y321.430
G01 X459.457 Y322.944
G01 X458.410 Y325.680
G01 X457.020 Y330.815
G01 X456.762 Y344.670
G01 X456.365 Y351.579
G01 X454.466 Y358.087
G01 X453.450 Y359.937
G01 X450.325 Y365.219
G01 X446.022 Y369.416
G01 X437.919 Y373.408
G01 X435.120 Y374.488
G01 X437.919 Y373.408
G01 X446.022 Y369.416
G01 X450.325 Y365.219
G01 X453.450 Y359.937
G01 X454.466 Y358.087
G01 X456.365 Y351.579
G01 X456.982 Y337.659
G01 X457.020 Y330.815
G01 X458.410 Y325.680
G01 X459.457 Y322.944
G01 X460.659 Y321.430
G01 X460.677 Y319.534
G01 X458.793 Y319.502
G01 X458.341 Y319.995
G01 X449.828 Y319.899
G01 X443.291 Y317.786
G01 X436.663 Y315.036
G01 X436.184 Y314.562
G01 X435.259 Y314.560
G01 X436.184 Y314.562
G01 X436.666 Y314.098
G01 X436.700 Y313.166
G01 X441.394 Y314.146
G01 X448.001 Y314.216
G01 X452.737 Y312.363
G01 X456.538 Y308.642
G01 X458.021 Y305.337
G01 X458.019 Y302.519
G01 X457.108 Y299.678
G01 X453.832 Y296.334
G01 X448.718 Y293.771
G01 X448.174 Y293.586
G01 X446.795 Y292.956
G01 X446.836 Y291.082
G01 X448.986 Y288.587
G01 X451.279 Y284.082
G01 X451.490 Y283.522
G01 X452.097 Y282.151
G01 X452.135 Y279.334
G01 X451.671 Y277.909
G01 X447.466 Y273.622
G01 X446.631 Y273.423
G01 X443.226 Y272.161
G01 X438.069 Y272.755
G01 X432.832 Y274.885
G01 X427.572 Y280.012
G01 X426.462 Y282.800
G01 X425.980 Y284.202
G01 X423.011 Y292.587
G01 X418.914 Y297.877
G01 X418.428 Y298.344
G01 X417.940 Y298.807
G01 X417.458 Y300.212
G01 X417.918 Y300.695
G01 X420.804 Y301.515
G01 X424.809 Y303.351
G01 X435.293 Y311.721
G01 X435.738 Y312.204
G01 X436.221 Y312.673
G01 X436.700 Y313.166
G01 X436.221 Y312.673
G01 X435.738 Y312.204
G01 X435.260 Y312.671
G01 X435.264 Y313.603
G01 X434.784 Y314.065
G01 X435.259 Y314.560
G01 X434.784 Y314.065
G01 X433.314 Y313.735
G01 X425.842 Y311.623
G01 X418.773 Y312.243
G01 X413.044 Y313.714
G01 X412.223 Y314.048
G01 X408.355 Y315.700
G01 X401.659 Y322.247
G01 X401.472 Y323.094
G01 X400.881 Y324.214
G01 X399.704 Y327.885
G01 X399.658 Y334.485
G01 X400.839 Y336.947
G01 X401.034 Y337.803
G01 X405.222 Y342.096
G01 X406.078 Y342.300
G01 X407.214 Y342.865
G01 X411.377 Y344.322
G01 X421.718 Y345.577
G01 X423.134 Y345.106
G01 X422.788 Y346.560
G01 X420.415 Y354.560
G01 X419.687 Y361.611
G01 X420.415 Y354.560
G01 X422.788 Y346.560
G01 X423.134 Y345.106
G01 X421.718 Y345.577
G01 X411.377 Y344.322
G01 X407.214 Y342.865
G01 X406.078 Y342.300
G01 X405.222 Y342.096
G01 X401.034 Y337.803
G01 X400.839 Y336.947
G01 X399.658 Y334.485
G01 X399.704 Y327.885
G01 X400.881 Y324.214
G01 X401.472 Y323.094
G01 X401.659 Y322.247
G01 X408.355 Y315.700
G01 X412.223 Y314.048
G01 X413.044 Y313.714
G01 X418.773 Y312.243
G01 X425.842 Y311.623
G01 X433.314 Y313.735
G01 X434.784 Y314.065
G01 X435.264 Y313.603
G01 X435.260 Y312.671
G01 X435.738 Y312.204
G01 X435.293 Y311.721
G01 X424.809 Y303.351
G01 X420.804 Y301.515
G01 X417.918 Y300.695
G01 X417.458 Y300.212
G01 X417.001 Y300.675
G01 X414.870 Y304.334
G01 X411.693 Y309.591
G01 X405.025 Y316.146
G01 X401.818 Y317.716
G01 X400.678 Y318.260
G01 X386.105 Y323.637
G01 X384.697 Y324.087
G01 X376.106 Y328.581
G01 X370.851 Y333.731
G01 X370.707 Y334.615
G01 X370.394 Y335.149
G01 X370.707 Y334.615
G01 X370.851 Y333.731
G01 X376.106 Y328.581
G01 X384.697 Y324.087
G01 X386.105 Y323.637
G01 X400.678 Y318.260
G01 X401.818 Y317.716
G01 X405.025 Y316.146
G01 X411.693 Y309.591
G01 X414.870 Y304.334
G01 X417.001 Y300.675
G01 X417.458 Y300.212
G01 X417.940 Y298.807
G01 X418.428 Y298.344
G01 X417.962 Y297.865
G01 X418.977 Y289.373
G01 X417.317 Y283.652
G01 X416.987 Y282.837
G01 X416.237 Y280.849
G01 X410.183 Y274.649
G01 X406.435 Y273.538
G01 X399.338 Y273.130
G01 X391.404 Y276.570
G01 X388.611 Y278.433
G01 X382.688 Y283.817
G01 X382.226 Y284.276
G01 X381.740 Y283.812
G01 X380.985 Y281.863
G01 X377.391 Y273.981
G01 X374.351 Y268.618
G01 X373.899 Y268.142
G01 X373.410 Y267.668
G01 X368.170 Y264.508
G01 X364.038 Y262.856
G01 X359.310 Y262.815
G01 X355.909 Y263.993
G01 X355.145 Y264.369
G01 X353.163 Y265.101
G01 X346.942 Y271.176
G01 X346.743 Y272.024
G01 X346.182 Y273.150
G01 X344.224 Y279.680
G01 X343.539 Y282.942
G01 X343.490 Y288.613
G01 X345.385 Y296.615
G01 X345.593 Y297.644
G01 X346.346 Y299.914
G01 X350.168 Y306.310
G01 X360.670 Y317.783
G01 X362.740 Y320.286
G01 X366.827 Y327.509
G01 X369.428 Y335.127
G01 X369.914 Y335.620
G01 X370.394 Y335.149
G01 X369.914 Y335.620
G01 X370.375 Y336.082
G01 X383.101 Y336.921
G01 X391.067 Y338.353
G01 X392.443 Y338.865
G01 X405.207 Y345.870
G01 X413.139 Y353.971
G01 X417.303 Y362.055
G01 X417.788 Y362.524
G01 X418.251 Y362.053
G01 X419.192 Y362.074
G01 X419.687 Y361.611
G01 X420.141 Y362.067
G01 X420.110 Y363.957
G01 X419.641 Y364.432
G01 X420.110 Y363.957
G01 X420.141 Y362.067
G01 X419.687 Y361.611
G01 X419.192 Y362.074
G01 X418.251 Y362.053
G01 X417.788 Y362.524
G01 X417.767 Y363.474
G01 X418.692 Y364.430
G01 X419.173 Y364.904
G01 X419.641 Y364.432
G01 X419.173 Y364.904
G01 X419.622 Y365.366
G01 X420.163 Y365.707
G01 X421.218 Y366.706
G01 X421.954 Y368.694
G01 X424.771 Y371.577
G01 X428.041 Y373.012
G01 X428.521 Y373.481
G01 X428.990 Y373.976
G01 X434.170 Y374.474
G01 X434.639 Y374.971
G01 X435.120 Y374.488
G01 X434.639 Y374.971
G01 X435.118 Y375.445
G01 X438.624 Y379.432
G01 X439.312 Y381.628
G01 X438.807 Y383.048
G01 X436.421 Y385.377
G01 X434.985 Y385.613
G01 X431.237 Y385.781
G01 X430.712 Y391.920
G01 X426.889 Y394.716
G01 X423.124 Y393.726
G01 X420.788 Y391.355
G01 X420.064 Y389.375
G01 X419.395 Y388.024
G01 X419.728 Y383.743
G01 X419.951 Y381.909
G01 X419.728 Y383.743
G01 X419.395 Y388.024
G01 X420.064 Y389.375
G01 X420.788 Y391.355
G01 X423.124 Y393.726
G01 X426.889 Y394.716
G01 X430.712 Y391.920
G01 X431.237 Y385.781
G01 X434.985 Y385.613
G01 X436.421 Y385.377
G01 X438.807 Y383.048
G01 X439.312 Y381.628
G01 X438.624 Y379.432
G01 X435.118 Y375.445
G01 X434.639 Y374.971
G01 X434.170 Y374.474
G01 X428.990 Y373.976
G01 X428.521 Y373.481
G01 X428.043 Y373.947
G01 X427.798 Y374.661
G01 X424.241 Y375.606
G01 X419.533 Y375.750
G01 X424.241 Y375.606
G01 X427.798 Y374.661
G01 X428.043 Y373.947
G01 X428.521 Y373.481
G01 X428.041 Y373.012
G01 X424.771 Y371.577
G01 X421.954 Y368.694
G01 X421.218 Y366.706
G01 X420.163 Y365.707
G01 X419.622 Y365.366
G01 X419.173 Y364.904
G01 X418.704 Y365.375
G01 X419.533 Y375.750
G01 X419.515 Y377.646
G01 X419.019 Y378.108
G01 X419.486 Y378.589
G01 X420.451 Y378.606
G01 X420.423 Y380.491
G01 X419.951 Y380.969
G01 X419.490 Y381.423
G01 X419.951 Y381.909
G01 X419.490 Y381.423
G01 X418.514 Y381.416
G01 X419.490 Y381.423
G01 X419.951 Y380.969
G01 X420.423 Y380.491
G01 X420.451 Y378.606
G01 X419.486 Y378.589
G01 X419.019 Y378.108
G01 X418.553 Y378.582
G01 X418.087 Y379.055
G01 X418.053 Y380.930
G01 X418.514 Y381.416
G01 X418.053 Y380.930
G01 X417.582 Y381.399
G01 X416.127 Y384.690
G01 X409.946 Y390.781
G01 X407.183 Y391.875
G01 X402.363 Y393.510
G01 X407.183 Y391.875
G01 X409.946 Y390.781
G01 X416.127 Y384.690
G01 X417.582 Y381.399
G01 X418.053 Y380.930
G01 X418.087 Y379.055
G01 X418.553 Y378.582
G01 X419.019 Y378.108
G01 X419.515 Y377.646
G01 X419.533 Y375.750
G01 X418.704 Y365.375
G01 X419.173 Y364.904
G01 X418.692 Y364.430
G01 X417.767 Y363.474
G01 X417.788 Y362.524
G01 X417.303 Y362.055
G01 X413.139 Y353.971
G01 X405.207 Y345.870
G01 X392.443 Y338.865
G01 X391.067 Y338.353
G01 X383.101 Y336.921
G01 X370.375 Y336.082
G01 X369.914 Y335.620
G01 X369.442 Y336.070
G01 X368.961 Y336.536
G01 X361.410 Y336.478
G01 X356.642 Y335.652
G01 X354.832 Y335.267
G01 X344.544 Y331.380
G01 X338.360 Y328.207
G01 X344.544 Y331.380
G01 X354.832 Y335.267
G01 X356.642 Y335.652
G01 X361.410 Y336.478
G01 X368.961 Y336.536
G01 X369.442 Y336.070
G01 X369.914 Y335.620
G01 X369.428 Y335.127
G01 X366.827 Y327.509
G01 X362.740 Y320.286
G01 X352.390 Y308.579
G01 X350.168 Y306.310
G01 X346.346 Y299.914
G01 X345.593 Y297.644
G01 X343.752 Y289.611
G01 X343.490 Y288.613
G01 X343.539 Y282.942
G01 X344.224 Y279.680
G01 X346.182 Y273.150
G01 X346.743 Y272.024
G01 X346.942 Y271.176
G01 X353.163 Y265.101
G01 X355.145 Y264.369
G01 X355.909 Y263.993
G01 X359.310 Y262.815
G01 X364.038 Y262.856
G01 X368.170 Y264.508
G01 X373.410 Y267.668
G01 X373.899 Y268.142
G01 X374.356 Y267.688
G01 X374.846 Y267.212
G01 X374.389 Y266.738
G01 X373.462 Y264.837
G01 X373.505 Y260.111
G01 X375.637 Y256.506
G01 X377.823 Y253.090
G01 X377.817 Y252.136
G01 X368.879 Y249.697
G01 X367.019 Y247.778
G01 X366.113 Y244.946
G01 X366.957 Y241.125
G01 X369.238 Y237.654
G01 X369.946 Y237.424
G01 X370.433 Y236.957
G01 X369.962 Y236.488
G01 X369.971 Y235.531
G01 X369.495 Y235.066
G01 X359.534 Y236.244
G01 X351.203 Y239.344
G01 X346.784 Y242.386
G01 X345.827 Y242.383
G01 X345.224 Y235.327
G01 X343.871 Y230.177
G01 X340.570 Y223.150
G01 X336.948 Y216.358
G01 X334.509 Y212.204
G01 X332.966 Y209.202
G01 X332.558 Y201.181
G01 X332.096 Y200.696
G01 X332.570 Y200.227
G01 X332.096 Y200.696
G01 X331.631 Y200.213
G01 X332.096 Y200.696
G01 X332.558 Y201.181
G01 X332.966 Y209.202
G01 X332.012 Y209.185
G01 X331.039 Y210.129
G01 X329.611 Y213.422
G01 X327.214 Y215.762
G01 X320.144 Y219.126
G01 X319.577 Y219.310
G01 X315.847 Y220.137
G01 X309.252 Y220.288
G01 X308.761 Y220.756
G01 X309.217 Y221.240
G01 X312.463 Y226.672
G01 X313.400 Y228.363
G01 X313.039 Y231.703
G01 X312.136 Y233.624
G01 X310.961 Y235.416
G01 X308.165 Y236.480
G01 X299.153 Y236.714
G01 X299.623 Y238.135
G01 X299.573 Y241.909
G01 X298.956 Y243.274
G01 X298.135 Y246.136
G01 X295.735 Y248.480
G01 X291.024 Y249.374
G01 X295.735 Y248.480
G01 X298.135 Y246.136
G01 X298.956 Y243.274
G01 X299.573 Y241.909
G01 X299.623 Y238.135
G01 X299.153 Y236.714
G01 X308.165 Y236.480
G01 X310.961 Y235.416
G01 X312.136 Y233.624
G01 X313.039 Y231.703
G01 X313.400 Y228.363
G01 X310.230 Y222.868
G01 X309.217 Y221.240
G01 X308.761 Y220.756
G01 X308.304 Y220.278
G01 X300.281 Y217.850
G01 X299.803 Y218.316
G01 X291.799 Y218.901
G01 X288.481 Y219.136
G01 X283.784 Y218.141
G01 X282.828 Y217.191
G01 X283.784 Y218.141
G01 X283.597 Y223.894
G01 X283.467 Y225.685
G01 X281.915 Y231.391
G01 X281.237 Y233.700
G01 X281.212 Y237.475
G01 X282.671 Y241.864
G01 X283.221 Y243.730
G01 X283.486 Y245.518
G01 X289.108 Y249.160
G01 X289.178 Y249.208
G01 X290.062 Y249.367
G01 X290.538 Y249.839
G01 X291.024 Y249.374
G01 X290.538 Y249.839
G01 X290.526 Y250.786
G01 X295.121 Y255.179
G01 X299.394 Y259.844
G01 X299.847 Y260.322
G01 X300.342 Y259.852
G01 X302.118 Y254.269
G01 X302.151 Y254.151
G01 X305.183 Y248.107
G01 X307.593 Y242.459
G01 X313.784 Y236.387
G01 X318.022 Y234.875
G01 X318.552 Y234.548
G01 X324.714 Y234.938
G01 X325.541 Y235.230
G01 X331.717 Y238.453
G01 X336.856 Y243.697
G01 X340.150 Y250.575
G01 X341.302 Y253.224
G01 X342.880 Y260.522
G01 X343.269 Y262.642
G01 X343.240 Y270.072
G01 X343.171 Y272.085
G01 X341.416 Y279.394
G01 X341.346 Y279.661
G01 X339.057 Y286.108
G01 X334.766 Y292.738
G01 X334.230 Y293.512
G01 X329.463 Y299.123
G01 X324.828 Y305.010
G01 X320.882 Y309.519
G01 X319.923 Y311.397
G01 X317.507 Y317.582
G01 X316.091 Y320.844
G01 X315.450 Y323.760
G01 X314.299 Y327.503
G01 X313.334 Y327.483
G01 X312.399 Y326.526
G01 X312.187 Y325.767
G01 X305.889 Y317.966
G01 X301.009 Y314.363
G01 X296.125 Y311.538
G01 X292.274 Y310.752
G01 X296.125 Y311.538
G01 X301.009 Y314.363
G01 X305.889 Y317.966
G01 X312.187 Y325.767
G01 X312.399 Y326.526
G01 X313.334 Y327.483
G01 X314.299 Y327.503
G01 X315.450 Y323.760
G01 X316.091 Y320.844
G01 X318.665 Y314.728
G01 X319.923 Y311.397
G01 X320.882 Y309.519
G01 X325.713 Y303.938
G01 X329.463 Y299.123
G01 X334.230 Y293.512
G01 X338.557 Y286.925
G01 X339.057 Y286.108
G01 X341.346 Y279.661
G01 X343.112 Y272.358
G01 X343.171 Y272.085
G01 X343.296 Y264.657
G01 X343.269 Y262.642
G01 X341.791 Y255.309
G01 X341.302 Y253.224
G01 X338.130 Y246.245
G01 X336.856 Y243.697
G01 X331.717 Y238.453
G01 X325.541 Y235.230
G01 X324.714 Y234.938
G01 X318.552 Y234.548
G01 X318.022 Y234.875
G01 X313.784 Y236.387
G01 X307.593 Y242.459
G01 X304.861 Y248.798
G01 X302.151 Y254.151
G01 X300.381 Y259.739
G01 X300.342 Y259.852
G01 X299.847 Y260.322
G01 X299.394 Y259.844
G01 X294.995 Y255.050
G01 X290.526 Y250.786
G01 X290.538 Y249.839
G01 X290.062 Y249.367
G01 X289.178 Y249.208
G01 X283.558 Y245.560
G01 X283.486 Y245.518
G01 X277.363 Y244.046
G01 X273.072 Y244.296
G01 X271.274 Y244.630
G01 X267.906 Y245.838
G01 X263.159 Y250.501
G01 X262.961 Y251.350
G01 X261.405 Y254.356
G01 X260.053 Y258.046
G01 X259.270 Y259.905
G01 X259.507 Y263.222
G01 X259.582 Y266.543
G01 X259.493 Y269.863
G01 X259.439 Y270.796
G01 X259.808 Y273.570
G01 X260.950 Y277.106
G01 X261.904 Y280.767
G01 X262.079 Y281.551
G01 X262.952 Y283.500
G01 X265.641 Y287.956
G01 X267.683 Y291.918
G01 X270.703 Y296.363
G01 X273.966 Y299.700
G01 X278.535 Y302.791
G01 X289.692 Y308.599
G01 X289.923 Y309.308
G01 X289.692 Y308.599
G01 X278.535 Y302.791
G01 X273.966 Y299.700
G01 X270.703 Y296.363
G01 X267.683 Y291.918
G01 X265.222 Y287.211
G01 X262.952 Y283.500
G01 X262.079 Y281.551
G01 X261.166 Y277.865
G01 X260.063 Y274.303
G01 X259.808 Y273.570
G01 X259.439 Y270.796
G01 X259.573 Y267.481
G01 X259.546 Y264.159
G01 X259.353 Y260.839
G01 X259.270 Y259.905
G01 X260.724 Y256.301
G01 X261.405 Y254.356
G01 X262.961 Y251.350
G01 X263.159 Y250.501
G01 X267.906 Y245.838
G01 X271.274 Y244.630
G01 X273.072 Y244.296
G01 X277.363 Y244.046
G01 X283.486 Y245.518
G01 X283.221 Y243.730
G01 X281.851 Y239.309
G01 X281.212 Y237.475
G01 X281.237 Y233.700
G01 X281.915 Y231.391
G01 X283.467 Y225.685
G01 X283.762 Y219.972
G01 X283.784 Y218.141
G01 X288.481 Y219.136
G01 X291.799 Y218.901
G01 X299.803 Y218.316
G01 X300.281 Y217.850
G01 X299.827 Y217.363
G01 X299.608 Y216.651
G01 X296.668 Y214.773
G01 X290.764 Y211.506
G01 X288.653 Y210.453
G01 X287.548 Y209.965
G01 X285.272 Y209.398
G01 X279.611 Y209.138
G01 X279.159 Y208.655
G01 X278.188 Y208.655
G01 X278.147 Y214.688
G01 X277.876 Y219.019
G01 X277.251 Y222.852
G01 X274.832 Y229.175
G01 X273.424 Y232.302
G01 X273.034 Y232.988
G01 X271.303 Y235.960
G01 X267.024 Y240.161
G01 X263.329 Y242.200
G01 X256.642 Y244.917
G01 X250.922 Y245.660
G01 X245.956 Y244.423
G01 X241.499 Y243.679
G01 X246.438 Y244.524
G01 X250.922 Y245.660
G01 X256.642 Y244.917
G01 X263.329 Y242.200
G01 X267.024 Y240.161
G01 X271.303 Y235.960
G01 X273.034 Y232.988
G01 X273.424 Y232.302
G01 X276.055 Y226.155
G01 X277.251 Y222.852
G01 X277.876 Y219.019
G01 X278.195 Y213.095
G01 X278.188 Y208.655
G01 X277.049 Y203.093
G01 X276.540 Y201.020
G01 X274.226 Y196.038
G01 X273.832 Y195.251
G01 X271.091 Y190.441
G01 X268.506 Y186.374
G01 X268.042 Y185.889
G01 X267.583 Y185.417
G01 X267.585 Y184.469
G01 X267.117 Y183.999
G01 X266.647 Y183.530
G01 X265.715 Y183.500
G01 X265.712 Y182.567
G01 X265.254 Y182.081
G01 X261.964 Y177.312
G01 X258.952 Y173.374
G01 X256.102 Y167.314
G01 X254.906 Y165.030
G01 X253.819 Y160.673
G01 X252.352 Y150.810
G01 X250.465 Y150.792
G01 X245.552 Y154.274
G01 X244.895 Y154.701
G01 X236.752 Y158.798
G01 X231.494 Y160.016
G01 X231.030 Y159.548
G01 X230.548 Y160.006
G01 X230.069 Y160.504
G01 X229.591 Y160.965
G01 X223.678 Y161.389
G01 X217.899 Y162.131
G01 X213.469 Y162.929
G01 X210.248 Y163.312
G01 X204.863 Y164.528
G01 X202.130 Y165.268
G01 X201.279 Y165.537
G01 X196.145 Y168.048
G01 X193.801 Y169.328
G01 X190.312 Y171.424
G01 X193.801 Y169.328
G01 X198.808 Y166.697
G01 X201.279 Y165.537
G01 X202.130 Y165.268
G01 X207.430 Y163.910
G01 X210.248 Y163.312
G01 X215.788 Y162.346
G01 X221.468 Y161.677
G01 X226.367 Y161.351
G01 X229.591 Y160.965
G01 X230.069 Y160.504
G01 X229.605 Y160.006
G01 X225.458 Y154.328
G01 X221.409 Y149.450
G01 X221.216 Y148.608
G01 X220.751 Y148.135
G01 X220.275 Y148.596
G01 X219.335 Y148.591
G01 X215.984 Y152.799
G01 X215.169 Y152.989
G01 X211.293 Y154.791
G01 X205.575 Y155.508
G01 X200.114 Y154.262
G01 X194.565 Y153.282
G01 X192.863 Y153.040
G01 X192.395 Y152.547
G01 X192.863 Y153.040
G01 X192.550 Y161.507
G01 X190.462 Y170.512
G01 X190.312 Y171.424
G01 X190.462 Y170.512
G01 X192.550 Y161.507
G01 X192.863 Y153.040
G01 X198.436 Y153.935
G01 X203.924 Y155.102
G01 X205.575 Y155.508
G01 X211.293 Y154.791
G01 X215.169 Y152.989
G01 X215.984 Y152.799
G01 X219.335 Y148.591
G01 X220.275 Y148.596
G01 X220.751 Y148.135
G01 X221.290 Y142.004
G01 X221.758 Y141.538
G01 X221.303 Y141.036
G01 X220.596 Y135.927
G01 X217.169 Y129.209
G01 X212.502 Y124.442
G01 X208.868 Y122.309
G01 X201.897 Y119.053
G01 X201.751 Y118.990
G01 X196.522 Y117.650
G01 X189.171 Y117.962
G01 X185.678 Y118.237
G01 X185.183 Y118.504
G01 X177.796 Y118.115
G01 X174.282 Y118.059
G01 X172.926 Y117.415
G01 X172.453 Y116.946
G01 X171.983 Y117.431
G01 X164.925 Y114.984
G01 X164.460 Y114.499
G01 X163.979 Y114.977
G01 X164.880 Y119.722
G01 X164.816 Y126.322
G01 X162.570 Y133.464
G01 X161.553 Y136.242
G01 X157.986 Y147.018
G01 X157.907 Y155.501
G01 X158.642 Y158.387
G01 X158.979 Y160.188
G01 X160.919 Y165.560
G01 X162.818 Y169.302
G01 X162.940 Y170.179
G01 X169.486 Y175.948
G01 X170.431 Y176.868
G01 X170.901 Y177.368
G01 X171.383 Y176.898
G01 X176.121 Y177.523
G01 X176.522 Y177.588
G01 X177.036 Y177.892
G01 X180.373 Y177.647
G01 X183.642 Y177.005
G01 X184.113 Y177.489
G01 X184.592 Y177.029
G01 X188.911 Y172.704
G01 X190.312 Y171.424
G01 X185.870 Y175.685
G01 X184.592 Y177.029
G01 X184.113 Y177.489
G01 X183.639 Y177.954
G01 X181.459 Y181.391
G01 X178.228 Y187.721
G01 X178.203 Y187.774
G01 X177.387 Y189.700
G01 X178.203 Y187.774
G01 X181.428 Y181.444
G01 X181.459 Y181.391
G01 X183.639 Y177.954
G01 X184.113 Y177.489
G01 X183.642 Y177.005
G01 X180.373 Y177.647
G01 X177.036 Y177.892
G01 X176.522 Y177.588
G01 X171.794 Y176.941
G01 X171.383 Y176.898
G01 X170.901 Y177.368
G01 X171.370 Y177.834
G01 X176.436 Y189.668
G01 X176.901 Y190.149
G01 X177.387 Y189.700
G01 X176.901 Y190.149
G01 X176.430 Y190.635
G01 X175.863 Y199.572
G01 X176.337 Y200.072
G01 X176.322 Y201.010
G01 X175.846 Y201.483
G01 X176.313 Y201.947
G01 X178.462 Y209.100
G01 X182.692 Y216.020
G01 X182.779 Y216.181
G01 X185.534 Y217.559
G01 X188.132 Y219.078
G01 X190.563 Y220.730
G01 X192.159 Y221.952
G01 X192.630 Y222.411
G01 X193.106 Y221.930
G01 X193.584 Y221.489
G01 X195.471 Y221.492
G01 X195.936 Y221.987
G01 X198.224 Y221.797
G01 X200.541 Y221.722
G01 X202.113 Y221.738
G01 X204.489 Y221.244
G01 X207.341 Y220.076
G01 X210.337 Y219.079
G01 X213.465 Y218.268
G01 X213.820 Y218.190
G01 X217.974 Y215.828
G01 X221.853 Y214.000
G01 X223.399 Y212.825
G01 X225.286 Y212.845
G01 X226.010 Y217.367
G01 X226.040 Y217.624
G01 X227.450 Y220.672
G01 X228.643 Y223.734
G01 X229.624 Y226.798
G01 X230.397 Y229.851
G01 X230.486 Y230.268
G01 X232.147 Y232.309
G01 X233.701 Y234.423
G01 X235.144 Y236.603
G01 X236.475 Y238.846
G01 X237.279 Y240.337
G01 X237.760 Y240.809
G01 X238.232 Y241.279
G01 X240.625 Y242.996
G01 X241.499 Y243.679
G01 X242.793 Y246.060
G01 X243.972 Y248.512
G01 X245.034 Y251.030
G01 X245.654 Y252.689
G01 X245.659 Y255.488
G01 X245.625 Y256.462
G01 X244.070 Y259.424
G01 X242.942 Y261.304
G01 X241.786 Y263.033
G01 X236.657 Y265.530
G01 X235.519 Y265.990
G01 X226.620 Y267.601
G01 X227.547 Y269.353
G01 X228.385 Y271.197
G01 X229.123 Y273.127
G01 X229.662 Y274.803
G01 X230.404 Y276.928
G01 X231.028 Y279.142
G01 X231.210 Y279.916
G01 X231.005 Y281.995
G01 X230.689 Y284.084
G01 X230.504 Y285.062
G01 X229.595 Y286.933
G01 X228.996 Y288.051
G01 X227.763 Y289.733
G01 X227.344 Y290.267
G01 X228.603 Y288.608
G01 X228.996 Y288.051
G01 X229.962 Y286.207
G01 X230.504 Y285.062
G01 X230.871 Y282.971
G01 X231.129 Y280.885
G01 X231.210 Y279.916
G01 X230.630 Y277.673
G01 X229.928 Y275.517
G01 X229.662 Y274.803
G01 X229.010 Y272.805
G01 X228.254 Y270.889
G01 X227.401 Y269.060
G01 X226.620 Y267.601
G01 X235.519 Y265.990
G01 X236.657 Y265.530
G01 X241.786 Y263.033
G01 X242.942 Y261.304
G01 X244.603 Y258.462
G01 X245.625 Y256.462
G01 X245.672 Y253.673
G01 X245.654 Y252.689
G01 X244.672 Y250.133
G01 X243.569 Y247.638
G01 X242.349 Y245.210
G01 X241.499 Y243.679
G01 X239.126 Y241.895
G01 X238.232 Y241.279
G01 X237.760 Y240.809
G01 X237.267 Y241.284
G01 X234.081 Y240.281
G01 X233.006 Y239.999
G01 X230.694 Y239.316
G01 X227.323 Y239.010
G01 X224.022 Y238.964
G01 X220.803 Y239.168
G01 X220.299 Y239.225
G01 X218.353 Y240.012
G01 X214.632 Y241.435
G01 X211.121 Y243.150
G01 X208.101 Y244.966
G01 X205.668 Y246.226
G01 X204.556 Y246.895
G01 X202.846 Y247.554
G01 X201.291 Y248.294
G01 X200.121 Y248.365
G01 X198.981 Y248.505
G01 X197.875 Y248.708
G01 X197.077 Y248.899
G01 X198.156 Y248.649
G01 X199.272 Y248.463
G01 X200.419 Y248.340
G01 X201.291 Y248.294
G01 X202.909 Y247.526
G01 X204.556 Y246.895
G01 X206.911 Y245.549
G01 X208.101 Y244.966
G01 X211.404 Y242.998
G01 X214.933 Y241.305
G01 X218.353 Y240.012
G01 X220.299 Y239.225
G01 X223.501 Y238.980
G01 X226.791 Y238.986
G01 X230.153 Y239.249
G01 X230.694 Y239.316
G01 X233.006 Y239.999
G01 X236.188 Y240.917
G01 X237.267 Y241.284
G01 X237.760 Y240.809
G01 X237.279 Y240.337
G01 X236.023 Y238.056
G01 X234.653 Y235.834
G01 X233.171 Y233.677
G01 X231.579 Y231.588
G01 X230.486 Y230.268
G01 X229.743 Y227.219
G01 X228.790 Y224.155
G01 X227.626 Y221.091
G01 X226.248 Y218.042
G01 X226.040 Y217.624
G01 X225.337 Y213.105
G01 X225.286 Y212.845
G01 X223.399 Y212.825
G01 X221.853 Y214.000
G01 X217.452 Y216.101
G01 X213.820 Y218.190
G01 X210.678 Y218.981
G01 X207.666 Y219.957
G01 X204.798 Y221.107
G01 X204.489 Y221.244
G01 X202.113 Y221.738
G01 X199.781 Y221.733
G01 X197.472 Y221.846
G01 X195.936 Y221.987
G01 X195.471 Y221.492
G01 X193.584 Y221.489
G01 X193.106 Y221.930
G01 X192.630 Y222.411
G01 X193.096 Y222.875
G01 X194.930 Y227.680
G01 X195.157 Y228.382
G01 X196.825 Y230.459
G01 X197.964 Y232.085
G01 X199.258 Y234.394
G01 X200.341 Y236.740
G01 X200.501 Y237.137
G01 X200.455 Y241.844
G01 X197.909 Y246.043
G01 X197.325 Y247.153
G01 X197.087 Y247.959
G01 X196.613 Y248.416
G01 X197.077 Y248.899
G01 X196.613 Y248.416
G01 X196.137 Y248.880
G01 X195.176 Y248.940
G01 X194.233 Y249.049
G01 X193.306 Y249.207
G01 X192.828 Y249.308
G01 X192.351 Y249.780
G01 X191.882 Y249.321
G01 X190.945 Y248.447
G01 X189.921 Y247.624
G01 X188.815 Y246.857
G01 X188.137 Y246.441
G01 X187.079 Y243.650
G01 X186.623 Y242.244
G01 X186.308 Y240.772
G01 X184.912 Y240.730
G01 X184.416 Y240.733
G01 X183.267 Y241.595
G01 X182.861 Y241.923
G01 X181.606 Y242.370
G01 X180.373 Y242.879
G01 X179.164 Y243.447
G01 X178.769 Y243.650
G01 X178.251 Y243.984
G01 X178.769 Y243.650
G01 X179.967 Y243.061
G01 X181.193 Y242.532
G01 X182.441 Y242.066
G01 X182.861 Y241.923
G01 X183.986 Y241.042
G01 X184.416 Y240.733
G01 X185.818 Y240.749
G01 X186.308 Y240.772
G01 X186.623 Y242.244
G01 X187.079 Y243.650
G01 X188.137 Y246.441
G01 X189.289 Y247.172
G01 X190.363 Y247.964
G01 X191.351 Y248.809
G01 X191.882 Y249.321
G01 X192.351 Y249.780
G01 X193.132 Y251.031
G01 X193.791 Y252.314
G01 X194.327 Y253.619
G01 X194.724 Y254.875
G01 X195.168 Y255.655
G01 X195.543 Y256.447
G01 X195.847 Y257.245
G01 X195.906 Y257.427
G01 X196.231 Y257.999
G01 X196.507 Y258.578
G01 X196.738 Y259.161
G01 X196.923 Y259.744
G01 X197.063 Y260.324
G01 X197.159 Y260.899
G01 X197.212 Y261.465
G01 X197.219 Y261.647
G01 X197.361 Y262.052
G01 X197.476 Y262.457
G01 X197.565 Y262.858
G01 X197.628 Y263.257
G01 X197.666 Y263.651
G01 X197.680 Y264.038
G01 X197.669 Y264.416
G01 X197.635 Y264.785
G01 X197.596 Y265.057
G01 X197.705 Y265.338
G01 X197.801 Y265.625
G01 X197.882 Y265.916
G01 X197.950 Y266.209
G01 X198.001 Y266.507
G01 X198.039 Y266.805
G01 X198.062 Y267.107
G01 X198.070 Y267.408
G01 X198.065 Y267.709
G01 X198.043 Y268.009
G01 X198.007 Y268.308
G01 X197.983 Y268.456
G01 X198.108 Y268.790
G01 X198.215 Y269.137
G01 X198.303 Y269.500
G01 X198.370 Y269.874
G01 X198.414 Y270.259
G01 X198.436 Y270.655
G01 X198.435 Y271.059
G01 X198.409 Y271.470
G01 X198.363 Y271.851
G01 X198.536 Y272.459
G01 X198.663 Y273.093
G01 X198.743 Y273.750
G01 X198.775 Y274.430
G01 X198.755 Y275.125
G01 X198.746 Y275.245
G01 X198.974 Y276.346
G01 X199.108 Y277.486
G01 X199.147 Y278.658
G01 X199.147 Y278.661
G01 X198.663 Y279.120
G01 X199.123 Y279.582
G01 X199.585 Y281.012
G01 X200.061 Y281.505
G01 X200.519 Y281.968
G01 X201.926 Y283.404
G01 X202.382 Y283.863
G01 X202.854 Y284.349
G01 X207.102 Y288.567
G01 X209.140 Y290.325
G01 X210.894 Y291.313
G01 X211.697 Y291.656
G01 X214.741 Y292.741
G01 X217.388 Y293.459
G01 X219.752 Y293.214
G01 X222.150 Y292.798
G01 X223.082 Y292.591
G01 X223.547 Y292.116
G01 X224.505 Y292.132
G01 X224.954 Y291.647
G01 X225.451 Y291.197
G01 X226.870 Y290.736
G01 X227.344 Y290.267
G01 X226.870 Y290.736
G01 X227.319 Y291.199
G01 X227.310 Y292.142
G01 X228.208 Y292.010
G01 X231.302 Y291.375
G01 X234.418 Y290.491
G01 X234.883 Y290.339
G01 X241.105 Y290.630
G01 X246.215 Y290.454
G01 X248.549 Y291.135
G01 X250.883 Y291.627
G01 X255.534 Y293.570
G01 X256.658 Y294.151
G01 X270.779 Y303.704
G01 X276.159 Y306.993
G01 X284.668 Y309.858
G01 X285.221 Y309.998
G01 X289.428 Y310.709
G01 X289.935 Y310.255
G01 X290.401 Y309.793
G01 X290.851 Y310.255
G01 X292.274 Y310.752
G01 X289.733 Y315.476
G01 X286.971 Y320.058
G01 X284.449 Y323.839
G01 X283.416 Y329.560
G01 X282.040 Y335.315
G01 X280.433 Y340.721
G01 X278.942 Y346.993
G01 X278.813 Y347.469
G01 X276.437 Y353.315
G01 X274.819 Y356.832
G01 X274.325 Y357.286
G01 X274.793 Y357.760
G01 X281.421 Y355.855
G01 X283.343 Y355.221
G01 X292.469 Y354.918
G01 X301.772 Y353.921
G01 X303.613 Y353.642
G01 X311.107 Y350.426
G01 X311.841 Y350.082
G01 X314.529 Y349.676
G01 X314.533 Y348.723
G01 X309.635 Y343.293
G01 X308.498 Y340.647
G01 X308.990 Y336.401
G01 X311.379 Y334.063
G01 X314.236 Y333.365
G01 X319.892 Y333.211
G01 X320.367 Y332.743
G01 X320.375 Y330.851
G01 X319.911 Y330.368
G01 X319.974 Y324.712
G01 X322.373 Y321.440
G01 X328.501 Y321.022
G01 X330.380 Y321.983
G01 X335.059 Y326.753
G01 X335.505 Y329.120
G01 X335.059 Y326.753
G01 X330.380 Y321.983
G01 X328.501 Y321.022
G01 X322.373 Y321.440
G01 X319.974 Y324.712
G01 X319.911 Y330.368
G01 X320.375 Y330.851
G01 X320.367 Y332.743
G01 X319.892 Y333.211
G01 X314.236 Y333.365
G01 X311.379 Y334.063
G01 X308.990 Y336.401
G01 X308.498 Y340.647
G01 X309.635 Y343.293
G01 X314.533 Y348.723
G01 X322.572 Y349.298
G01 X327.718 Y347.776
G01 X335.800 Y347.543
G01 X336.264 Y347.067
G01 X336.299 Y346.128
G01 X337.702 Y345.668
G01 X338.501 Y339.993
G01 X338.785 Y333.401
G01 X338.308 Y332.923
G01 X337.832 Y332.447
G01 X337.860 Y331.519
G01 X337.856 Y330.562
G01 X338.346 Y329.147
G01 X337.863 Y328.668
G01 X338.360 Y328.207
G01 X337.863 Y328.668
G01 X337.399 Y329.142
G01 X337.863 Y328.668
G01 X338.346 Y329.147
G01 X337.856 Y330.562
G01 X336.909 Y330.548
G01 X337.856 Y330.562
G01 X337.860 Y331.519
G01 X336.911 Y331.500
G01 X337.860 Y331.519
G01 X337.832 Y332.447
G01 X338.308 Y332.923
G01 X337.829 Y333.392
G01 X338.308 Y332.923
G01 X338.785 Y333.401
G01 X338.501 Y339.993
G01 X337.702 Y345.668
G01 X336.299 Y346.128
G01 X335.368 Y343.276
G01 X336.194 Y336.656
G01 X336.875 Y333.380
G01 X337.829 Y333.392
G01 X336.875 Y333.380
G01 X336.876 Y332.440
G01 X337.832 Y332.447
G01 X336.876 Y332.440
G01 X336.911 Y331.500
G01 X336.438 Y331.014
G01 X336.909 Y330.548
G01 X336.438 Y331.014
G01 X335.962 Y330.531
G01 X335.985 Y329.599
G01 X336.452 Y329.132
G01 X337.399 Y329.142
G01 X336.452 Y329.132
G01 X335.985 Y329.599
G01 X335.505 Y329.120
G01 X335.985 Y329.599
G01 X335.962 Y330.531
G01 X336.438 Y331.014
G01 X336.911 Y331.500
G01 X336.876 Y332.440
G01 X336.875 Y333.380
G01 X336.194 Y336.656
G01 X335.368 Y343.276
G01 X336.299 Y346.128
G01 X336.264 Y347.067
G01 X336.759 Y347.548
G01 X336.528 Y349.394
G01 X333.538 Y356.581
G01 X330.259 Y364.305
G01 X326.738 Y371.570
G01 X324.147 Y379.503
G01 X326.738 Y371.570
G01 X330.420 Y363.950
G01 X333.538 Y356.581
G01 X336.528 Y349.394
G01 X336.759 Y347.548
G01 X336.264 Y347.067
G01 X335.800 Y347.543
G01 X327.718 Y347.776
G01 X322.572 Y349.298
G01 X314.533 Y348.723
G01 X314.529 Y349.676
G01 X314.029 Y352.024
G01 X314.636 Y359.091
G01 X315.059 Y361.437
G01 X320.159 Y373.250
G01 X323.195 Y379.488
G01 X323.654 Y379.973
G01 X324.147 Y379.503
G01 X323.654 Y379.973
G01 X324.026 Y392.002
G01 X324.010 Y393.673
G01 X324.478 Y394.144
G01 X324.916 Y395.560
G01 X325.406 Y396.058
G01 X326.889 Y402.144
G01 X330.673 Y409.625
G01 X332.767 Y413.105
G01 X337.445 Y417.880
G01 X338.272 Y418.103
G01 X341.752 Y420.087
G01 X349.668 Y422.716
G01 X356.270 Y422.776
G01 X362.422 Y420.488
G01 X369.589 Y413.486
G01 X370.757 Y410.769
G01 X371.309 Y409.627
G01 X373.284 Y404.038
G01 X373.476 Y402.202
G01 X373.951 Y401.736
G01 X374.424 Y400.320
G01 X374.935 Y399.853
G01 X374.930 Y398.904
G01 X375.395 Y398.433
G01 X376.352 Y397.509
G01 X376.376 Y396.562
G01 X380.163 Y393.762
G01 X384.874 Y393.812
G01 X390.041 Y399.072
G01 X390.972 Y399.060
G01 X395.755 Y394.394
G01 X396.216 Y393.916
G01 X401.872 Y393.988
G01 X402.363 Y393.510
G01 X401.872 Y393.988
G01 X402.353 Y394.478
G01 X404.466 Y397.002
G01 X406.060 Y400.158
G01 X406.048 Y403.012
G01 X404.285 Y407.800
G01 X404.097 Y408.652
G01 X394.346 Y416.995
G01 X390.771 Y419.839
G01 X400.635 Y411.716
G01 X404.097 Y408.652
G01 X404.285 Y407.800
G01 X406.048 Y403.012
G01 X406.060 Y400.158
G01 X404.466 Y397.002
G01 X402.353 Y394.478
G01 X401.872 Y393.988
G01 X396.216 Y393.916
G01 X395.755 Y393.462
G01 X386.831 Y391.750
G01 X380.129 Y389.231
G01 X378.766 Y388.695
G01 X376.928 Y387.608
G01 X375.026 Y387.574
G01 X374.957 Y396.087
G01 X375.026 Y387.574
G01 X376.928 Y387.608
G01 X378.766 Y388.695
G01 X380.129 Y389.231
G01 X386.831 Y391.750
G01 X395.755 Y393.462
G01 X396.216 Y393.916
G01 X395.755 Y394.394
G01 X390.972 Y399.060
G01 X390.041 Y399.072
G01 X384.874 Y393.812
G01 X380.163 Y393.762
G01 X376.376 Y396.562
G01 X375.437 Y396.560
G01 X374.957 Y396.087
G01 X375.437 Y396.560
G01 X376.376 Y396.562
G01 X376.352 Y397.509
G01 X375.395 Y398.433
G01 X374.930 Y398.904
G01 X374.456 Y398.425
G01 X374.468 Y396.536
G01 X374.957 Y396.087
G01 X374.468 Y396.536
G01 X374.456 Y398.425
G01 X374.930 Y398.904
G01 X374.935 Y399.853
G01 X375.380 Y400.315
G01 X375.850 Y401.752
G01 X375.380 Y400.315
G01 X374.935 Y399.853
G01 X374.424 Y400.320
G01 X373.951 Y401.736
G01 X374.432 Y402.204
G01 X375.375 Y402.223
G01 X375.850 Y401.752
G01 X375.375 Y402.223
G01 X375.815 Y402.687
G01 X376.933 Y407.337
G01 X377.663 Y409.325
G01 X389.810 Y419.827
G01 X390.291 Y420.293
G01 X390.771 Y419.839
G01 X390.291 Y420.293
G01 X390.260 Y421.250
G01 X390.291 Y420.293
G01 X389.810 Y419.827
G01 X377.663 Y409.325
G01 X376.933 Y407.337
G01 X375.815 Y402.687
G01 X375.375 Y402.223
G01 X374.432 Y402.204
G01 X373.951 Y401.736
G01 X373.476 Y402.202
G01 X373.284 Y404.038
G01 X371.309 Y409.627
G01 X370.757 Y410.769
G01 X369.589 Y413.486
G01 X362.422 Y420.488
G01 X356.270 Y422.776
G01 X349.668 Y422.716
G01 X341.752 Y420.087
G01 X338.272 Y418.103
G01 X337.445 Y417.880
G01 X332.767 Y413.105
G01 X330.673 Y409.625
G01 X326.889 Y402.144
G01 X325.406 Y396.058
G01 X324.916 Y395.560
G01 X324.454 Y396.036
G01 X323.502 Y396.010
G01 X324.454 Y396.036
G01 X324.916 Y395.560
G01 X324.478 Y394.144
G01 X324.010 Y393.673
G01 X323.517 Y394.135
G01 X323.026 Y395.546
G01 X323.502 Y396.010
G01 X323.026 Y395.546
G01 X322.565 Y396.017
G01 X322.409 Y396.921
G01 X319.920 Y401.956
G01 X317.986 Y404.627
G01 X314.882 Y408.207
G01 X306.820 Y411.430
G01 X301.603 Y411.063
G01 X296.474 Y408.483
G01 X295.084 Y407.075
G01 X292.437 Y401.322
G01 X291.207 Y396.675
G01 X290.065 Y388.615
G01 X288.183 Y388.599
G01 X286.377 Y389.704
G01 X285.248 Y390.260
G01 X278.675 Y392.099
G01 X276.843 Y392.425
G01 X272.575 Y392.690
G01 X272.065 Y392.392
G01 X266.923 Y390.736
G01 X263.177 Y386.904
G01 X261.341 Y381.226
G01 X261.762 Y373.166
G01 X264.317 Y367.094
G01 X261.762 Y373.166
G01 X261.341 Y381.226
G01 X263.177 Y386.904
G01 X266.923 Y390.736
G01 X272.065 Y392.392
G01 X272.575 Y392.690
G01 X276.843 Y392.425
G01 X278.675 Y392.099
G01 X285.248 Y390.260
G01 X286.377 Y389.704
G01 X288.183 Y388.599
G01 X290.065 Y388.615
G01 X291.207 Y396.675
G01 X292.437 Y401.322
G01 X295.084 Y407.075
G01 X296.474 Y408.483
G01 X301.603 Y411.063
G01 X306.820 Y411.430
G01 X314.882 Y408.207
G01 X317.986 Y404.627
G01 X319.920 Y401.956
G01 X322.409 Y396.921
G01 X322.565 Y396.017
G01 X323.026 Y395.546
G01 X323.517 Y394.135
G01 X324.010 Y393.673
G01 X323.757 Y381.599
G01 X323.654 Y379.973
G01 X323.195 Y379.488
G01 X320.159 Y373.250
G01 X315.059 Y361.437
G01 X314.636 Y359.091
G01 X314.029 Y352.024
G01 X314.529 Y349.676
G01 X311.841 Y350.082
G01 X304.349 Y353.351
G01 X303.613 Y353.642
G01 X294.279 Y354.779
G01 X285.115 Y355.216
G01 X283.343 Y355.221
G01 X276.711 Y357.252
G01 X274.793 Y357.760
G01 X274.325 Y357.286
G01 X273.855 Y357.764
G01 X269.678 Y362.103
G01 X265.272 Y366.248
G01 X264.317 Y367.094
G01 X268.769 Y362.991
G01 X272.995 Y358.692
G01 X273.855 Y357.764
G01 X274.325 Y357.286
G01 X274.819 Y356.832
G01 X277.418 Y351.012
G01 X278.813 Y347.469
G01 X280.596 Y341.411
G01 X281.998 Y335.375
G01 X282.848 Y330.594
G01 X284.200 Y325.038
G01 X284.449 Y323.839
G01 X287.394 Y319.389
G01 X290.123 Y314.786
G01 X292.274 Y310.752
G01 X290.851 Y310.255
G01 X290.401 Y309.793
G01 X289.923 Y309.308
G01 X290.401 Y309.793
G01 X289.935 Y310.255
G01 X289.428 Y310.709
G01 X285.221 Y309.998
G01 X284.668 Y309.858
G01 X276.159 Y306.993
G01 X270.779 Y303.704
G01 X256.658 Y294.151
G01 X255.534 Y293.570
G01 X250.883 Y291.627
G01 X248.549 Y291.135
G01 X246.215 Y290.454
G01 X239.894 Y290.616
G01 X234.883 Y290.339
G01 X231.766 Y291.259
G01 X228.667 Y291.930
G01 X228.208 Y292.010
G01 X227.310 Y292.142
G01 X226.371 Y293.087
G01 X225.418 Y293.072
G01 X226.371 Y293.087
G01 X227.310 Y292.142
G01 X227.319 Y291.199
G01 X226.870 Y290.736
G01 X225.451 Y291.197
G01 X224.954 Y291.647
G01 X225.427 Y292.127
G01 X225.418 Y293.072
G01 X224.460 Y294.003
G01 X223.514 Y293.993
G01 X224.460 Y294.003
G01 X225.418 Y293.072
G01 X225.427 Y292.127
G01 X224.954 Y291.647
G01 X224.505 Y292.132
G01 X223.547 Y292.116
G01 X223.082 Y292.591
G01 X223.552 Y293.069
G01 X223.514 Y293.993
G01 X221.706 Y295.075
G01 X221.141 Y295.385
G01 X219.810 Y296.860
G01 X218.402 Y298.272
G01 X216.924 Y299.615
G01 X216.388 Y300.070
G01 X216.169 Y300.885
G01 X215.073 Y302.909
G01 X214.171 Y304.389
G01 X213.322 Y307.272
G01 X212.517 Y309.471
G01 X212.477 Y313.240
G01 X214.161 Y318.962
G01 X217.863 Y323.902
G01 X223.139 Y327.440
G01 X223.555 Y327.692
G01 X224.689 Y328.279
G01 X229.953 Y330.440
G01 X232.160 Y331.207
G01 X237.762 Y332.750
G01 X238.242 Y332.861
G01 X238.712 Y333.344
G01 X238.237 Y333.807
G01 X235.790 Y337.373
G01 X234.679 Y338.861
G01 X232.677 Y343.776
G01 X230.674 Y347.928
G01 X229.529 Y353.536
G01 X230.674 Y347.928
G01 X233.002 Y343.038
G01 X234.679 Y338.861
G01 X237.230 Y335.327
G01 X238.237 Y333.807
G01 X238.712 Y333.344
G01 X238.242 Y332.861
G01 X232.619 Y331.351
G01 X232.160 Y331.207
G01 X226.778 Y329.195
G01 X224.689 Y328.279
G01 X223.555 Y327.692
G01 X218.248 Y324.183
G01 X217.863 Y323.902
G01 X214.161 Y318.962
G01 X212.477 Y313.240
G01 X212.517 Y309.471
G01 X213.544 Y306.587
G01 X214.171 Y304.389
G01 X215.373 Y302.385
G01 X216.169 Y300.885
G01 X216.388 Y300.070
G01 X217.892 Y298.750
G01 X219.323 Y297.363
G01 X220.683 Y295.909
G01 X221.141 Y295.385
G01 X222.962 Y294.337
G01 X223.514 Y293.993
G01 X223.552 Y293.069
G01 X223.082 Y292.591
G01 X220.673 Y293.075
G01 X218.294 Y293.385
G01 X217.388 Y293.459
G01 X214.217 Y292.575
G01 X211.697 Y291.656
G01 X210.894 Y291.313
G01 X209.140 Y290.325
G01 X204.695 Y286.277
G01 X202.854 Y284.349
G01 X202.382 Y283.863
G01 X201.918 Y284.353
G01 X200.966 Y284.327
G01 X201.918 Y284.353
G01 X202.382 Y283.863
G01 X201.926 Y283.404
G01 X200.519 Y281.968
G01 X200.061 Y281.505
G01 X199.584 Y281.971
G01 X200.029 Y284.332
G01 X200.495 Y284.805
G01 X200.966 Y284.327
G01 X200.495 Y284.805
G01 X200.416 Y287.005
G01 X200.246 Y288.550
G01 X199.775 Y290.623
G01 X199.120 Y292.699
G01 X198.512 Y294.233
G01 X197.412 Y295.658
G01 X196.188 Y297.034
G01 X194.840 Y298.356
G01 X193.373 Y299.615
G01 X191.835 Y300.771
G01 X191.014 Y300.968
G01 X189.275 Y302.144
G01 X187.419 Y303.228
G01 X185.450 Y304.209
G01 X183.767 Y304.930
G01 X183.289 Y305.397
G01 X183.760 Y305.860
G01 X185.311 Y308.315
G01 X186.791 Y310.332
G01 X188.621 Y314.469
G01 X190.435 Y317.829
G01 X191.137 Y322.954
G01 X191.604 Y323.414
G01 X192.070 Y323.906
G01 X193.483 Y324.375
G01 X194.418 Y325.322
G01 X194.406 Y326.269
G01 X197.630 Y329.844
G01 X201.212 Y333.236
G01 X201.413 Y333.413
G01 X205.178 Y335.651
G01 X209.183 Y337.671
G01 X213.416 Y339.457
G01 X213.632 Y339.539
G01 X218.423 Y341.991
G01 X219.733 Y342.587
G01 X225.804 Y348.772
G01 X228.585 Y353.524
G01 X229.058 Y354.009
G01 X229.529 Y353.536
G01 X229.058 Y354.009
G01 X229.532 Y354.490
G01 X231.316 Y363.952
G01 X231.774 Y364.408
G01 X237.303 Y368.428
G01 X241.675 Y370.485
G01 X246.337 Y371.627
G01 X252.639 Y370.978
G01 X252.990 Y370.932
G01 X258.846 Y369.108
G01 X264.317 Y367.094
G01 X258.493 Y369.228
G01 X252.990 Y370.932
G01 X246.683 Y371.601
G01 X246.337 Y371.627
G01 X241.675 Y370.485
G01 X237.303 Y368.428
G01 X231.774 Y364.408
G01 X231.316 Y363.952
G01 X230.838 Y364.409
G01 X230.597 Y368.151
G01 X229.060 Y372.041
G01 X228.647 Y372.743
G01 X226.948 Y375.712
G01 X224.083 Y378.495
G01 X218.875 Y380.808
G01 X213.055 Y380.783
G01 X212.265 Y380.755
G01 X206.500 Y378.041
G01 X202.709 Y375.204
G01 X198.202 Y371.142
G01 X197.748 Y369.731
G01 X195.851 Y369.716
G01 X192.255 Y374.550
G01 X192.020 Y375.356
G01 X186.454 Y380.882
G01 X185.349 Y381.887
G01 X182.123 Y383.447
G01 X181.072 Y384.197
G01 X182.123 Y383.447
G01 X185.349 Y381.887
G01 X191.017 Y376.413
G01 X192.020 Y375.356
G01 X192.255 Y374.550
G01 X195.851 Y369.716
G01 X197.748 Y369.731
G01 X198.202 Y371.142
G01 X202.709 Y375.204
G01 X206.500 Y378.041
G01 X212.265 Y380.755
G01 X218.075 Y380.822
G01 X218.875 Y380.808
G01 X224.083 Y378.495
G01 X226.948 Y375.712
G01 X228.647 Y372.743
G01 X229.060 Y372.041
G01 X230.597 Y368.151
G01 X230.838 Y364.409
G01 X231.316 Y363.952
G01 X229.532 Y354.490
G01 X229.058 Y354.009
G01 X228.585 Y353.524
G01 X225.804 Y348.772
G01 X219.733 Y342.587
G01 X214.971 Y340.553
G01 X210.479 Y338.241
G01 X207.524 Y336.481
G01 X203.680 Y334.649
G01 X201.413 Y333.413
G01 X197.813 Y330.031
G01 X194.568 Y326.464
G01 X194.406 Y326.269
G01 X194.418 Y325.322
G01 X193.483 Y324.375
G01 X192.070 Y323.906
G01 X191.604 Y323.414
G01 X191.128 Y323.899
G01 X190.346 Y326.789
G01 X187.034 Y331.942
G01 X185.361 Y334.223
G01 X182.988 Y335.606
G01 X182.507 Y336.070
G01 X182.039 Y335.581
G01 X178.782 Y336.168
G01 X175.423 Y336.481
G01 X172.154 Y335.762
G01 X168.854 Y334.632
G01 X167.989 Y334.305
G01 X164.926 Y332.599
G01 X164.479 Y332.332
G01 X163.668 Y332.098
G01 X161.048 Y329.594
G01 X158.606 Y326.990
G01 X158.067 Y326.377
G01 X156.887 Y323.875
G01 X155.395 Y320.305
G01 X154.168 Y316.728
G01 X154.060 Y316.377
G01 X153.154 Y313.529
G01 X151.942 Y310.493
G01 X150.933 Y307.452
G01 X150.123 Y304.418
G01 X150.075 Y304.207
G01 X149.517 Y303.075
G01 X148.003 Y300.813
G01 X147.236 Y299.565
G01 X145.363 Y297.560
G01 X143.582 Y295.449
G01 X143.281 Y295.072
G01 X145.048 Y297.202
G01 X146.904 Y299.224
G01 X147.236 Y299.565
G01 X148.685 Y301.861
G01 X149.517 Y303.075
G01 X150.075 Y304.207
G01 X150.870 Y307.240
G01 X151.864 Y310.281
G01 X153.061 Y313.317
G01 X153.154 Y313.529
G01 X154.060 Y316.377
G01 X155.263 Y319.954
G01 X156.728 Y323.526
G01 X156.887 Y323.875
G01 X158.067 Y326.377
G01 X160.469 Y329.000
G01 X163.048 Y331.529
G01 X163.668 Y332.098
G01 X164.479 Y332.332
G01 X167.526 Y334.060
G01 X167.989 Y334.305
G01 X171.274 Y335.478
G01 X172.154 Y335.762
G01 X175.423 Y336.481
G01 X178.782 Y336.168
G01 X182.039 Y335.581
G01 X182.507 Y336.070
G01 X182.036 Y336.534
G01 X177.820 Y340.296
G01 X173.212 Y343.800
G01 X170.137 Y345.851
G01 X167.757 Y347.712
G01 X164.248 Y353.767
G01 X161.488 Y360.414
G01 X160.546 Y360.397
G01 X160.082 Y359.906
G01 X159.656 Y355.668
G01 X156.156 Y352.113
G01 X155.916 Y351.853
G01 X152.144 Y351.808
G01 X150.710 Y353.219
G01 X151.139 Y358.397
G01 X147.334 Y359.322
G01 X145.911 Y360.731
G01 X145.876 Y364.486
G01 X148.219 Y366.865
G01 X152.462 Y367.385
G01 X157.238 Y365.697
G01 X160.505 Y365.099
G01 X157.238 Y365.697
G01 X152.462 Y367.385
G01 X148.219 Y366.865
G01 X145.876 Y364.486
G01 X145.911 Y360.731
G01 X147.334 Y359.322
G01 X151.139 Y358.397
G01 X150.710 Y353.219
G01 X152.144 Y351.808
G01 X155.916 Y351.853
G01 X159.397 Y355.418
G01 X159.656 Y355.668
G01 X160.082 Y359.906
G01 X160.546 Y360.397
G01 X160.075 Y360.865
G01 X160.065 Y361.786
G01 X160.532 Y362.274
G01 X160.995 Y362.757
G01 X160.988 Y364.630
G01 X160.505 Y365.099
G01 X160.976 Y365.581
G01 X162.955 Y374.947
G01 X163.680 Y376.947
G01 X168.356 Y381.736
G01 X168.827 Y382.185
G01 X173.543 Y383.887
G01 X179.329 Y384.168
G01 X181.072 Y384.197
G01 X181.067 Y385.144
G01 X180.784 Y391.726
G01 X177.106 Y403.988
G01 X176.625 Y404.462
G01 X176.154 Y403.986
G01 X172.671 Y396.252
G01 X169.209 Y391.171
G01 X163.502 Y388.483
G01 X160.282 Y386.803
G01 X155.558 Y386.767
G01 X152.156 Y387.964
G01 X149.250 Y389.786
G01 X147.967 Y390.483
G01 X145.373 Y394.606
G01 X142.377 Y401.784
G01 X141.993 Y403.582
G01 X141.183 Y408.351
G01 X139.289 Y408.327
G01 X137.279 Y406.620
G01 X130.770 Y403.212
G01 X129.870 Y402.707
G01 X124.736 Y401.094
G01 X120.024 Y401.046
G01 X113.858 Y403.343
G01 X111.479 Y405.687
G01 X109.876 Y408.925
G01 X109.678 Y409.498
G01 X108.580 Y412.259
G01 X108.484 Y420.748
G01 X111.065 Y427.478
G01 X112.640 Y430.719
G01 X119.376 Y437.620
G01 X120.106 Y438.325
G01 X122.933 Y440.240
G01 X120.106 Y438.325
G01 X113.318 Y431.450
G01 X112.640 Y430.719
G01 X111.065 Y427.478
G01 X108.484 Y420.748
G01 X108.580 Y412.259
G01 X109.678 Y409.498
G01 X109.876 Y408.925
G01 X111.479 Y405.687
G01 X113.858 Y403.343
G01 X120.024 Y401.046
G01 X124.736 Y401.094
G01 X129.870 Y402.707
G01 X136.351 Y406.159
G01 X137.279 Y406.620
G01 X139.289 Y408.327
G01 X141.183 Y408.351
G01 X141.993 Y403.582
G01 X142.377 Y401.784
G01 X145.373 Y394.606
G01 X147.967 Y390.483
G01 X149.250 Y389.786
G01 X152.156 Y387.964
G01 X155.558 Y386.767
G01 X160.282 Y386.803
G01 X165.870 Y389.642
G01 X169.209 Y391.171
G01 X172.671 Y396.252
G01 X176.154 Y403.986
G01 X176.625 Y404.462
G01 X176.589 Y408.226
G01 X177.051 Y408.699
G01 X177.983 Y409.673
G01 X178.455 Y410.140
G01 X178.918 Y410.605
G01 X179.101 Y411.464
G01 X179.834 Y413.459
G01 X182.637 Y416.296
G01 X185.935 Y417.760
G01 X189.709 Y417.795
G01 X191.125 Y417.353
G01 X194.471 Y414.079
G01 X195.094 Y411.755
G01 X196.448 Y404.647
G01 X198.746 Y405.288
G01 X205.589 Y405.690
G01 X205.871 Y405.700
G01 X206.923 Y404.957
G01 X207.775 Y404.755
G01 X210.156 Y402.447
G01 X211.135 Y399.623
G01 X210.832 Y396.272
G01 X208.385 Y391.101
G01 X202.707 Y387.402
G01 X199.036 Y386.099
G01 X193.205 Y386.192
G01 X187.383 Y386.002
G01 X184.317 Y385.786
G01 X181.067 Y385.144
G01 X184.317 Y385.786
G01 X190.130 Y386.127
G01 X195.957 Y386.183
G01 X199.036 Y386.099
G01 X202.707 Y387.402
G01 X208.385 Y391.101
G01 X210.832 Y396.272
G01 X211.135 Y399.623
G01 X210.156 Y402.447
G01 X207.775 Y404.755
G01 X206.923 Y404.957
G01 X205.871 Y405.700
G01 X199.026 Y405.310
G01 X198.746 Y405.288
G01 X196.448 Y404.647
G01 X195.094 Y411.755
G01 X194.471 Y414.079
G01 X191.125 Y417.353
G01 X189.709 Y417.795
G01 X185.935 Y417.760
G01 X182.637 Y416.296
G01 X179.834 Y413.459
G01 X179.101 Y411.464
G01 X178.918 Y410.605
G01 X178.455 Y410.140
G01 X177.981 Y410.587
G01 X177.039 Y410.598
G01 X177.981 Y410.587
G01 X178.455 Y410.140
G01 X177.983 Y409.673
G01 X177.051 Y408.699
G01 X176.589 Y408.226
G01 X176.108 Y408.702
G01 X176.087 Y410.565
G01 X176.555 Y411.075
G01 X177.039 Y410.598
G01 X176.555 Y411.075
G01 X176.084 Y411.515
G01 X175.834 Y415.291
G01 X173.906 Y421.800
G01 X173.316 Y422.930
G01 X165.246 Y434.877
G01 X163.769 Y437.046
G01 X160.495 Y444.368
G01 X159.144 Y453.370
G01 X157.248 Y453.346
G01 X153.801 Y450.240
G01 X146.989 Y446.483
G01 X146.407 Y446.300
G01 X137.514 Y444.416
G01 X133.784 Y443.488
G01 X126.219 Y441.702
G01 X125.746 Y442.161
G01 X124.782 Y442.168
G01 X124.813 Y441.204
G01 X123.861 Y440.269
G01 X122.933 Y440.240
G01 X122.909 Y441.209
G01 X122.933 Y440.240
G01 X123.861 Y440.269
G01 X124.813 Y441.204
G01 X124.782 Y442.168
G01 X122.900 Y442.147
G01 X122.445 Y441.666
G01 X122.909 Y441.209
G01 X122.445 Y441.666
G01 X112.594 Y441.082
G01 X112.531 Y441.077
G01 X112.029 Y441.346
G01 X106.388 Y442.430
G01 X107.472 Y428.305
G01 X106.359 Y424.613
G01 X103.779 Y419.752
G01 X97.729 Y416.250
G01 X93.916 Y415.408
G01 X93.447 Y414.926
G01 X93.916 Y414.481
G01 X100.585 Y409.812
G01 X103.669 Y406.257
G01 X107.537 Y400.795
G01 X109.505 Y395.240
G01 X110.227 Y388.207
G01 X109.140 Y384.519
G01 X108.412 Y381.582
G01 X107.957 Y380.158
G01 X107.491 Y379.678
G01 X107.029 Y379.195
G01 X101.522 Y375.154
G01 X94.873 Y372.322
G01 X91.043 Y371.490
G01 X80.428 Y371.678
G01 X79.221 Y371.649
G01 X76.430 Y372.021
G01 X74.996 Y372.260
G01 X74.531 Y371.791
G01 X76.236 Y362.856
G01 X76.315 Y362.346
G01 X77.005 Y359.081
G01 X77.087 Y351.521
G01 X76.358 Y348.642
G01 X75.904 Y346.882
G01 X74.582 Y343.634
G01 X72.705 Y340.928
G01 X70.608 Y338.245
G01 X64.471 Y335.062
G01 X62.171 Y334.365
G01 X52.714 Y334.289
G01 X50.791 Y335.055
G01 X45.501 Y337.300
G01 X44.810 Y337.719
G01 X42.017 Y339.587
G01 X36.584 Y344.490
G01 X42.017 Y339.587
G01 X44.810 Y337.719
G01 X45.501 Y337.300
G01 X50.791 Y335.055
G01 X52.714 Y334.289
G01 X62.171 Y334.365
G01 X64.471 Y335.062
G01 X70.608 Y338.245
G01 X72.705 Y340.928
G01 X74.582 Y343.634
G01 X75.904 Y346.882
G01 X76.358 Y348.642
G01 X77.087 Y351.521
G01 X77.005 Y359.081
G01 X76.315 Y362.346
G01 X76.236 Y362.856
G01 X74.531 Y371.791
G01 X74.996 Y372.260
G01 X76.430 Y372.021
G01 X79.221 Y371.649
G01 X89.865 Y371.550
G01 X91.043 Y371.490
G01 X94.873 Y372.322
G01 X101.522 Y375.154
G01 X107.029 Y379.195
G01 X107.491 Y379.678
G01 X107.969 Y379.204
G01 X110.815 Y377.353
G01 X114.642 Y373.606
G01 X114.842 Y372.798
G01 X119.426 Y365.176
G01 X121.827 Y362.817
G01 X125.046 Y361.259
G01 X126.188 Y360.697
G01 X128.921 Y359.611
G01 X135.301 Y359.688
G01 X135.534 Y359.683
G01 X138.368 Y360.630
G01 X142.250 Y364.618
G01 X142.570 Y364.930
G01 X143.149 Y367.252
G01 X143.483 Y367.762
G01 X142.310 Y371.433
G01 X141.529 Y373.425
G01 X137.250 Y377.610
G01 X136.301 Y377.605
G01 X135.829 Y378.072
G01 X135.805 Y379.980
G01 X140.657 Y384.274
G01 X142.365 Y385.682
G01 X142.532 Y386.548
G01 X143.418 Y388.497
G01 X143.712 Y391.849
G01 X143.219 Y393.271
G01 X138.452 Y397.926
G01 X134.183 Y399.310
G01 X127.548 Y398.426
G01 X126.746 Y398.106
G01 X122.899 Y396.353
G01 X118.219 Y391.582
G01 X118.017 Y390.769
G01 X116.375 Y387.789
G01 X111.380 Y382.767
G01 X110.293 Y381.603
G01 X108.412 Y381.582
G01 X110.293 Y381.603
G01 X115.217 Y386.671
G01 X116.375 Y387.789
G01 X118.017 Y390.769
G01 X118.219 Y391.582
G01 X122.899 Y396.353
G01 X126.746 Y398.106
G01 X127.548 Y398.426
G01 X134.183 Y399.310
G01 X138.452 Y397.926
G01 X143.219 Y393.271
G01 X143.712 Y391.849
G01 X143.418 Y388.497
G01 X142.532 Y386.548
G01 X142.365 Y385.682
G01 X137.416 Y381.456
G01 X135.805 Y379.980
G01 X135.829 Y378.072
G01 X136.301 Y377.605
G01 X137.250 Y377.610
G01 X141.529 Y373.425
G01 X142.310 Y371.433
G01 X143.483 Y367.762
G01 X143.149 Y367.252
G01 X142.570 Y364.930
G01 X138.668 Y360.954
G01 X138.368 Y360.630
G01 X135.534 Y359.683
G01 X129.159 Y359.620
G01 X128.921 Y359.611
G01 X126.188 Y360.697
G01 X125.046 Y361.259
G01 X121.827 Y362.817
G01 X119.426 Y365.176
G01 X114.842 Y372.798
G01 X114.642 Y373.606
G01 X110.815 Y377.353
G01 X107.969 Y379.204
G01 X107.491 Y379.678
G01 X107.957 Y380.158
G01 X108.412 Y381.582
G01 X109.140 Y384.519
G01 X110.227 Y388.207
G01 X109.505 Y395.240
G01 X107.537 Y400.795
G01 X103.669 Y406.257
G01 X100.585 Y409.812
G01 X93.916 Y414.481
G01 X93.447 Y414.926
G01 X92.959 Y415.401
G01 X83.024 Y418.596
G01 X82.543 Y419.070
G01 X82.075 Y418.603
G01 X80.217 Y418.760
G01 X72.626 Y419.445
G01 X67.438 Y418.913
G01 X66.969 Y419.389
G01 X66.498 Y418.909
G01 X65.558 Y418.901
G01 X65.562 Y417.945
G01 X64.637 Y417.944
G01 X64.147 Y418.399
G01 X64.637 Y417.944
G01 X65.562 Y417.945
G01 X65.558 Y418.901
G01 X64.142 Y419.358
G01 X62.572 Y420.414
G01 X58.476 Y421.377
G01 X53.248 Y421.615
G01 X43.368 Y420.084
G01 X39.060 Y420.356
G01 X37.260 Y420.680
G01 X29.166 Y423.711
G01 X22.969 Y429.788
G01 X22.765 Y430.637
G01 X21.368 Y433.971
G01 X20.964 Y441.106
G01 X21.877 Y443.950
G01 X25.623 Y447.769
G01 X29.334 Y448.921
G01 X34.562 Y449.283
G01 X42.149 Y447.459
G01 X43.087 Y447.464
G01 X43.193 Y457.832
G01 X44.620 Y462.678
G01 X44.811 Y463.524
G01 X48.072 Y466.880
G01 X48.976 Y467.012
G01 X49.536 Y467.197
G01 X50.899 Y467.863
G01 X55.618 Y467.894
G01 X58.491 Y467.128
G01 X59.279 Y466.771
G01 X61.763 Y465.603
G01 X65.578 Y461.865
G01 X69.296 Y454.303
G01 X69.750 Y452.884
G01 X70.433 Y450.567
G01 X70.479 Y444.899
G01 X69.260 Y440.596
G01 X66.584 Y431.147
G01 X66.197 Y427.435
G01 X66.751 Y421.245
G01 X66.969 Y419.389
G01 X66.751 Y421.245
G01 X66.197 Y427.435
G01 X66.584 Y431.147
G01 X69.260 Y440.596
G01 X70.479 Y444.899
G01 X70.433 Y450.567
G01 X69.750 Y452.884
G01 X69.296 Y454.303
G01 X65.578 Y461.865
G01 X61.763 Y465.603
G01 X59.279 Y466.771
G01 X58.491 Y467.128
G01 X55.618 Y467.894
G01 X50.899 Y467.863
G01 X49.536 Y467.197
G01 X48.976 Y467.012
G01 X48.072 Y466.880
G01 X44.811 Y463.524
G01 X44.620 Y462.678
G01 X43.193 Y457.832
G01 X43.087 Y447.464
G01 X42.149 Y447.459
G01 X34.562 Y449.283
G01 X29.334 Y448.921
G01 X25.623 Y447.769
G01 X21.877 Y443.950
G01 X20.964 Y441.106
G01 X21.368 Y433.971
G01 X22.765 Y430.637
G01 X22.969 Y429.788
G01 X29.166 Y423.711
G01 X37.260 Y420.680
G01 X39.060 Y420.356
G01 X43.368 Y420.084
G01 X53.248 Y421.615
G01 X58.476 Y421.377
G01 X62.572 Y420.414
G01 X64.142 Y419.358
G01 X64.147 Y418.399
G01 X63.673 Y417.950
G01 X54.329 Y414.866
G01 X46.269 Y412.567
G01 X33.500 Y412.728
G01 X26.438 Y414.252
G01 X26.928 Y410.029
G01 X26.460 Y409.538
G01 X26.938 Y409.072
G01 X27.710 Y408.038
G01 X29.142 Y403.880
G01 X29.404 Y398.243
G01 X29.883 Y397.777
G01 X30.363 Y397.312
G01 X28.714 Y385.942
G01 X27.943 Y377.426
G01 X27.578 Y373.690
G01 X27.399 Y365.642
G01 X31.125 Y353.012
G01 X31.796 Y351.057
G01 X35.609 Y345.440
G01 X36.080 Y344.973
G01 X36.584 Y344.490
G01 X36.080 Y344.973
G01 X35.613 Y344.505
G01 X35.452 Y342.649
G01 X34.262 Y338.349
G01 X29.133 Y333.094
G01 X26.361 Y331.988
G01 X25.796 Y331.788
G01 X18.793 Y330.156
G01 X18.323 Y329.678
G01 X18.791 Y329.218
G01 X20.418 Y326.021
G01 X22.443 Y321.663
G01 X23.632 Y317.926
G01 X24.116 Y317.471
G01 X24.555 Y317.961
G01 X25.089 Y318.272
G01 X30.248 Y320.652
G01 X32.036 Y321.041
G01 X36.327 Y321.375
G01 X39.159 Y320.462
G01 X42.048 Y317.654
G01 X43.353 Y314.310
G01 X43.957 Y312.950
G01 X43.991 Y310.122
G01 X41.430 Y304.315
G01 X41.231 Y303.486
G01 X35.627 Y297.772
G01 X27.681 Y295.137
G01 X16.882 Y292.670
G01 X12.106 Y289.969
G01 X10.681 Y290.425
G01 X10.457 Y293.224
G01 X9.337 Y296.594
G01 X3.495 Y307.094
G01 X1.719 Y310.659
G01 X0.960 Y317.714
G01 X3.255 Y325.745
G01 X7.447 Y330.057
G01 X8.287 Y330.243
G01 X9.329 Y331.010
G01 X8.287 Y330.243
G01 X7.447 Y330.057
G01 X3.255 Y325.745
G01 X0.960 Y317.714
G01 X1.719 Y310.659
G01 X7.366 Y299.947
G01 X9.337 Y296.594
G01 X10.457 Y293.224
G01 X10.681 Y290.425
G01 X12.106 Y289.969
G01 X16.882 Y292.670
G01 X27.681 Y295.137
G01 X35.627 Y297.772
G01 X41.231 Y303.486
G01 X41.430 Y304.315
G01 X43.991 Y310.122
G01 X43.957 Y312.950
G01 X43.353 Y314.310
G01 X42.048 Y317.654
G01 X39.159 Y320.462
G01 X36.327 Y321.375
G01 X32.036 Y321.041
G01 X30.248 Y320.652
G01 X25.089 Y318.272
G01 X24.555 Y317.961
G01 X24.116 Y317.471
G01 X23.632 Y317.926
G01 X22.443 Y321.663
G01 X20.418 Y326.021
G01 X18.791 Y329.218
G01 X18.323 Y329.678
G01 X17.825 Y330.151
G01 X17.329 Y330.428
G01 X9.791 Y331.483
G01 X9.329 Y331.010
G01 X9.791 Y331.483
G01 X9.327 Y331.954
G01 X8.411 Y332.093
G01 X2.239 Y332.353
G01 X-1.070 Y331.849
G01 X-0.171 Y336.584
G01 X-0.507 Y341.791
G01 X-1.492 Y346.517
G01 X-2.168 Y348.817
G01 X-2.226 Y354.493
G01 X0.532 Y362.075
G01 X5.185 Y366.853
G01 X8.012 Y367.817
G01 X13.683 Y367.870
G01 X18.421 Y364.152
G01 X18.594 Y363.240
G01 X19.611 Y359.464
G01 X19.507 Y351.884
G01 X24.224 Y351.938
G01 X24.698 Y352.411
G01 X30.308 Y351.382
G01 X31.796 Y351.057
G01 X30.308 Y351.382
G01 X24.698 Y352.411
G01 X24.224 Y351.938
G01 X19.507 Y351.884
G01 X19.611 Y359.464
G01 X18.594 Y363.240
G01 X18.421 Y364.152
G01 X13.683 Y367.870
G01 X8.012 Y367.817
G01 X5.185 Y366.853
G01 X0.532 Y362.075
G01 X-2.226 Y354.493
G01 X-2.168 Y348.817
G01 X-1.492 Y346.517
G01 X-0.507 Y341.791
G01 X-0.171 Y336.584
G01 X-1.070 Y331.849
G01 X-2.012 Y330.894
G01 X-1.070 Y331.849
G01 X2.239 Y332.353
G01 X8.411 Y332.093
G01 X9.327 Y331.954
G01 X9.791 Y331.483
G01 X17.329 Y330.428
G01 X17.825 Y330.151
G01 X18.323 Y329.678
G01 X18.793 Y330.156
G01 X25.796 Y331.788
G01 X26.361 Y331.988
G01 X29.133 Y333.094
G01 X34.262 Y338.349
G01 X35.452 Y342.649
G01 X35.613 Y344.505
G01 X36.080 Y344.973
G01 X35.609 Y345.440
G01 X31.796 Y351.057
G01 X27.935 Y363.593
G01 X27.399 Y365.642
G01 X27.578 Y373.690
G01 X27.943 Y377.426
G01 X29.048 Y388.680
G01 X30.363 Y397.312
G01 X29.883 Y397.777
G01 X29.404 Y398.243
G01 X28.933 Y397.767
G01 X27.556 Y395.399
G01 X25.125 Y394.134
G01 X23.786 Y393.462
G01 X19.964 Y394.243
G01 X14.789 Y398.550
G01 X13.842 Y398.563
G01 X13.639 Y397.753
G01 X10.120 Y392.858
G01 X8.233 Y391.896
G01 X3.524 Y391.841
G01 X-0.296 Y395.579
G01 X-0.846 Y402.651
G01 X-0.219 Y404.024
G01 X0.529 Y406.921
G01 X7.089 Y413.596
G01 X8.029 Y413.601
G01 X11.043 Y418.029
G01 X11.736 Y419.291
G01 X11.043 Y418.029
G01 X8.029 Y413.601
G01 X7.089 Y413.596
G01 X0.529 Y406.921
G01 X-0.219 Y404.024
G01 X-0.846 Y402.651
G01 X-0.296 Y395.579
G01 X3.524 Y391.841
G01 X8.233 Y391.896
G01 X10.120 Y392.858
G01 X13.639 Y397.753
G01 X13.842 Y398.563
G01 X14.789 Y398.550
G01 X19.964 Y394.243
G01 X23.786 Y393.462
G01 X25.125 Y394.134
G01 X27.556 Y395.399
G01 X28.933 Y397.767
G01 X29.404 Y398.243
G01 X29.142 Y403.880
G01 X27.710 Y408.038
G01 X26.938 Y409.072
G01 X26.460 Y409.538
G01 X25.984 Y410.005
G01 X21.839 Y412.534
G01 X15.553 Y415.565
G01 X12.680 Y419.325
G01 X12.204 Y419.791
G01 X11.736 Y419.291
G01 X12.204 Y419.791
G01 X12.680 Y419.325
G01 X15.553 Y415.565
G01 X21.839 Y412.534
G01 X25.984 Y410.005
G01 X26.460 Y409.538
G01 X26.928 Y410.029
G01 X26.438 Y414.252
G01 X33.500 Y412.728
G01 X46.269 Y412.567
G01 X54.329 Y414.866
G01 X63.673 Y417.950
G01 X64.147 Y418.399
G01 X64.142 Y419.358
G01 X65.558 Y418.901
G01 X66.498 Y418.909
G01 X66.969 Y419.389
G01 X67.438 Y418.913
G01 X72.626 Y419.445
G01 X80.217 Y418.760
G01 X82.075 Y418.603
G01 X82.543 Y419.070
G01 X82.063 Y419.545
G01 X77.036 Y425.800
G01 X73.577 Y433.658
G01 X72.425 Y438.329
G01 X72.370 Y443.986
G01 X74.452 Y453.957
G01 X75.241 Y458.156
G01 X75.445 Y467.166
G01 X74.313 Y470.878
G01 X73.947 Y474.221
G01 X82.469 Y472.411
G01 X88.137 Y472.480
G01 X91.012 Y473.248
G01 X102.150 Y475.815
G01 X102.743 Y475.935
G01 X110.808 Y475.716
G01 X112.618 Y475.363
G01 X119.871 Y472.503
G01 X120.560 Y472.115
G01 X123.558 Y470.478
G01 X129.270 Y464.872
G01 X132.002 Y458.248
G01 X132.671 Y455.925
G01 X132.061 Y451.726
G01 X131.132 Y448.950
G01 X129.945 Y446.474
G01 X128.079 Y444.553
G01 X127.123 Y444.541
G01 X125.722 Y443.125
G01 X125.746 Y442.161
G01 X125.722 Y443.125
G01 X127.123 Y444.541
G01 X128.079 Y444.553
G01 X129.945 Y446.474
G01 X131.132 Y448.950
G01 X132.061 Y451.726
G01 X132.671 Y455.925
G01 X132.002 Y458.248
G01 X129.270 Y464.872
G01 X123.558 Y470.478
G01 X120.560 Y472.115
G01 X119.871 Y472.503
G01 X112.618 Y475.363
G01 X110.808 Y475.716
G01 X102.743 Y475.935
G01 X91.603 Y473.399
G01 X91.012 Y473.248
G01 X88.137 Y472.480
G01 X82.469 Y472.411
G01 X73.947 Y474.221
G01 X74.313 Y470.878
G01 X75.445 Y467.166
G01 X75.241 Y458.156
G01 X74.452 Y453.957
G01 X72.370 Y443.986
G01 X72.425 Y438.329
G01 X73.577 Y433.658
G01 X77.036 Y425.800
G01 X82.063 Y419.545
G01 X82.543 Y419.070
G01 X83.024 Y418.596
G01 X92.959 Y415.401
G01 X93.447 Y414.926
G01 X93.916 Y415.408
G01 X97.729 Y416.250
G01 X103.779 Y419.752
G01 X106.359 Y424.613
G01 X107.472 Y428.305
G01 X106.388 Y442.430
G01 X112.029 Y441.346
G01 X112.531 Y441.077
G01 X122.383 Y441.663
G01 X122.445 Y441.666
G01 X122.900 Y442.147
G01 X124.782 Y442.168
G01 X125.746 Y442.161
G01 X126.219 Y441.702
G01 X133.784 Y443.488
G01 X142.647 Y445.560
G01 X146.407 Y446.300
G01 X146.989 Y446.483
G01 X153.801 Y450.240
G01 X157.248 Y453.346
G01 X159.144 Y453.370
G01 X160.495 Y444.368
G01 X163.769 Y437.046
G01 X165.246 Y434.877
G01 X173.316 Y422.930
G01 X173.906 Y421.800
G01 X175.834 Y415.291
G01 X176.084 Y411.515
G01 X176.555 Y411.075
G01 X176.087 Y410.565
G01 X176.108 Y408.702
G01 X176.589 Y408.226
G01 X176.625 Y404.462
G01 X177.106 Y403.988
G01 X180.784 Y391.726
G01 X181.067 Y385.144
G01 X181.072 Y384.197
G01 X175.291 Y384.002
G01 X173.543 Y383.887
G01 X168.827 Y382.185
G01 X164.111 Y377.416
G01 X163.680 Y376.947
G01 X162.955 Y374.947
G01 X160.976 Y365.581
G01 X160.505 Y365.099
G01 X160.988 Y364.630
G01 X160.995 Y362.757
G01 X160.532 Y362.274
G01 X160.065 Y361.786
G01 X160.075 Y360.865
G01 X160.546 Y360.397
G01 X161.488 Y360.414
G01 X161.012 Y361.805
G01 X160.532 Y362.274
G01 X161.012 Y361.805
G01 X161.488 Y360.414
G01 X164.248 Y353.767
G01 X167.757 Y347.712
G01 X172.880 Y344.151
G01 X177.590 Y340.293
G01 X179.654 Y338.389
G01 X182.036 Y336.534
G01 X182.507 Y336.070
G01 X182.988 Y335.606
G01 X185.361 Y334.223
G01 X188.904 Y329.154
G01 X190.346 Y326.789
G01 X191.128 Y323.899
G01 X191.604 Y323.414
G01 X191.137 Y322.954
G01 X190.435 Y317.829
G01 X188.276 Y313.760
G01 X186.791 Y310.332
G01 X185.051 Y307.930
G01 X183.760 Y305.860
G01 X183.289 Y305.397
G01 X183.767 Y304.930
G01 X185.822 Y304.036
G01 X187.770 Y303.036
G01 X189.604 Y301.935
G01 X191.014 Y300.968
G01 X191.835 Y300.771
G01 X193.416 Y299.582
G01 X194.878 Y298.322
G01 X196.222 Y296.998
G01 X197.443 Y295.620
G01 X198.512 Y294.233
G01 X199.305 Y292.168
G01 X199.913 Y290.093
G01 X200.246 Y288.550
G01 X200.462 Y286.329
G01 X200.495 Y284.805
G01 X200.029 Y284.332
G01 X199.584 Y281.971
G01 X200.061 Y281.505
G01 X199.585 Y281.012
G01 X199.123 Y279.582
G01 X198.663 Y279.120
G01 X197.692 Y278.673
G01 X196.781 Y278.163
G01 X195.936 Y277.589
G01 X195.159 Y276.962
G01 X194.454 Y276.284
G01 X193.947 Y275.714
G01 X193.478 Y275.480
G01 X193.038 Y275.221
G01 X192.627 Y274.940
G01 X192.246 Y274.637
G01 X191.897 Y274.315
G01 X191.587 Y273.986
G01 X191.267 Y273.964
G01 X190.950 Y273.928
G01 X190.635 Y273.875
G01 X190.322 Y273.805
G01 X190.012 Y273.723
G01 X189.709 Y273.623
G01 X189.409 Y273.510
G01 X189.114 Y273.382
G01 X188.827 Y273.238
G01 X188.546 Y273.082
G01 X188.320 Y272.942
G01 X187.942 Y272.915
G01 X187.558 Y272.863
G01 X187.169 Y272.786
G01 X186.779 Y272.684
G01 X186.387 Y272.555
G01 X185.995 Y272.401
G01 X185.606 Y272.220
G01 X185.219 Y272.012
G01 X185.039 Y271.905
G01 X183.981 Y272.048
G01 X182.892 Y272.099
G01 X181.781 Y272.053
G01 X180.656 Y271.906
G01 X180.339 Y271.848
G01 X176.490 Y272.618
G01 X175.657 Y272.885
G01 X169.592 Y275.271
G01 X165.798 Y278.058
G01 X162.231 Y281.233
G01 X159.784 Y283.793
G01 X152.817 Y289.803
G01 X152.421 Y290.183
G01 X146.090 Y293.069
G01 X143.281 Y294.135
G01 X142.815 Y294.594
G01 X143.281 Y295.072
G01 X142.815 Y294.594
G01 X143.281 Y294.135
G01 X146.090 Y293.069
G01 X152.421 Y290.183
G01 X157.919 Y284.863
G01 X163.829 Y280.146
G01 X164.695 Y279.529
G01 X167.601 Y276.846
G01 X169.592 Y275.271
G01 X175.657 Y272.885
G01 X176.490 Y272.618
G01 X180.339 Y271.848
G01 X181.467 Y272.022
G01 X182.582 Y272.096
G01 X183.678 Y272.072
G01 X184.746 Y271.954
G01 X185.039 Y271.905
G01 X185.423 Y272.125
G01 X185.811 Y272.319
G01 X186.202 Y272.486
G01 X186.594 Y272.627
G01 X186.986 Y272.740
G01 X187.375 Y272.829
G01 X187.762 Y272.893
G01 X188.144 Y272.932
G01 X188.320 Y272.942
G01 X188.594 Y273.110
G01 X188.875 Y273.264
G01 X189.164 Y273.405
G01 X189.459 Y273.531
G01 X189.760 Y273.642
G01 X190.065 Y273.738
G01 X190.375 Y273.819
G01 X190.688 Y273.885
G01 X191.005 Y273.935
G01 X191.322 Y273.969
G01 X191.587 Y273.986
G01 X191.904 Y274.324
G01 X192.255 Y274.644
G01 X192.637 Y274.947
G01 X193.048 Y275.228
G01 X193.489 Y275.486
G01 X193.947 Y275.714
G01 X194.592 Y276.426
G01 X195.312 Y277.094
G01 X196.103 Y277.712
G01 X196.962 Y278.272
G01 X197.885 Y278.771
G01 X198.663 Y279.120
G01 X199.147 Y278.661
G01 X199.108 Y277.488
G01 X198.974 Y276.349
G01 X198.748 Y275.248
G01 X198.746 Y275.245
G01 X198.775 Y274.546
G01 X198.752 Y273.865
G01 X198.680 Y273.204
G01 X198.560 Y272.565
G01 X198.395 Y271.953
G01 X198.363 Y271.851
G01 X198.412 Y271.435
G01 X198.435 Y271.024
G01 X198.435 Y270.620
G01 X198.411 Y270.226
G01 X198.364 Y269.841
G01 X198.296 Y269.468
G01 X198.207 Y269.108
G01 X198.099 Y268.760
G01 X197.983 Y268.456
G01 X198.026 Y268.158
G01 X198.055 Y267.858
G01 X198.070 Y267.558
G01 X198.068 Y267.257
G01 X198.053 Y266.956
G01 X198.022 Y266.656
G01 X197.977 Y266.358
G01 X197.918 Y266.062
G01 X197.844 Y265.769
G01 X197.755 Y265.481
G01 X197.652 Y265.196
G01 X197.596 Y265.057
G01 X197.647 Y264.696
G01 X197.673 Y264.324
G01 X197.678 Y263.944
G01 X197.659 Y263.555
G01 X197.615 Y263.161
G01 X197.546 Y262.761
G01 X197.452 Y262.358
G01 X197.329 Y261.953
G01 X197.219 Y261.647
G01 X197.181 Y261.084
G01 X197.099 Y260.512
G01 X196.974 Y259.934
G01 X196.803 Y259.351
G01 X196.587 Y258.768
G01 X196.325 Y258.187
G01 X196.017 Y257.612
G01 X195.906 Y257.427
G01 X195.666 Y256.486
G01 X195.340 Y255.548
G01 X194.931 Y254.615
G01 X194.440 Y253.697
G01 X193.864 Y252.798
G01 X193.536 Y252.345
G01 X192.875 Y250.796
G01 X192.351 Y249.780
G01 X192.828 Y249.308
G01 X193.745 Y249.126
G01 X194.680 Y248.992
G01 X195.632 Y248.905
G01 X196.137 Y248.880
G01 X196.613 Y248.416
G01 X197.087 Y247.959
G01 X197.325 Y247.153
G01 X199.760 Y242.905
G01 X200.455 Y241.844
G01 X200.501 Y237.137
G01 X199.454 Y234.786
G01 X198.197 Y232.470
G01 X197.964 Y232.085
G01 X196.445 Y229.959
G01 X195.157 Y228.382
G01 X193.390 Y223.566
G01 X193.096 Y222.875
G01 X192.630 Y222.411
G01 X192.149 Y222.897
G01 X189.988 Y223.519
G01 X187.887 Y224.248
G01 X185.852 Y225.073
G01 X184.056 Y225.911
G01 X182.239 Y226.261
G01 X180.257 Y226.882
G01 X178.310 Y227.600
G01 X177.474 Y227.941
G01 X175.962 Y229.673
G01 X174.864 Y231.073
G01 X173.856 Y232.743
G01 X173.166 Y234.031
G01 X173.024 Y237.346
G01 X173.091 Y239.667
G01 X174.965 Y242.541
G01 X175.418 Y242.995
G01 X175.889 Y243.480
G01 X177.310 Y243.980
G01 X177.764 Y244.439
G01 X178.251 Y243.984
G01 X177.764 Y244.439
G01 X177.289 Y244.905
G01 X176.953 Y245.422
G01 X176.352 Y246.798
G01 X175.851 Y248.180
G01 X175.445 Y249.560
G01 X175.133 Y250.931
G01 X175.111 Y251.050
G01 X174.811 Y252.326
G01 X174.594 Y253.590
G01 X174.460 Y254.840
G01 X174.404 Y256.067
G01 X174.426 Y257.268
G01 X174.522 Y258.439
G01 X174.680 Y259.519
G01 X174.584 Y260.487
G01 X174.541 Y261.444
G01 X174.548 Y262.349
G01 X174.053 Y263.144
G01 X173.594 Y263.975
G01 X173.173 Y264.841
G01 X172.794 Y265.740
G01 X172.459 Y266.670
G01 X172.171 Y267.629
G01 X171.930 Y268.613
G01 X171.863 Y268.934
G01 X170.305 Y270.118
G01 X168.818 Y271.458
G01 X167.416 Y272.950
G01 X166.142 Y274.541
G01 X165.286 Y274.721
G01 X162.823 Y275.923
G01 X157.863 Y275.572
G01 X157.587 Y275.538
G01 X155.263 Y274.904
G01 X153.892 Y273.256
G01 X152.597 Y271.490
G01 X152.019 Y270.622
G01 X151.923 Y268.659
G01 X151.924 Y266.695
G01 X152.022 Y264.733
G01 X152.082 Y264.014
G01 X152.812 Y262.132
G01 X153.202 Y261.238
G01 X153.971 Y259.434
G01 X154.026 Y259.315
G01 X154.026 Y258.370
G01 X150.719 Y258.065
G01 X143.673 Y256.379
G01 X140.406 Y253.042
G01 X143.673 Y256.379
G01 X150.719 Y258.065
G01 X154.026 Y258.370
G01 X154.026 Y259.315
G01 X153.250 Y261.115
G01 X153.202 Y261.238
G01 X152.426 Y263.090
G01 X152.082 Y264.014
G01 X151.948 Y265.973
G01 X151.912 Y267.937
G01 X151.972 Y269.901
G01 X152.019 Y270.622
G01 X153.274 Y272.442
G01 X154.611 Y274.146
G01 X155.263 Y274.904
G01 X157.587 Y275.538
G01 X162.550 Y275.916
G01 X162.823 Y275.923
G01 X165.286 Y274.721
G01 X166.142 Y274.541
G01 X167.453 Y272.906
G01 X168.858 Y271.418
G01 X170.346 Y270.083
G01 X171.863 Y268.934
G01 X172.089 Y267.941
G01 X172.363 Y266.974
G01 X172.683 Y266.034
G01 X173.048 Y265.125
G01 X173.454 Y264.248
G01 X173.901 Y263.405
G01 X174.387 Y262.599
G01 X174.548 Y262.349
G01 X174.469 Y261.377
G01 X174.441 Y260.387
G01 X174.471 Y259.380
G01 X174.558 Y258.358
G01 X174.704 Y257.327
G01 X174.822 Y256.697
G01 X174.746 Y255.431
G01 X174.755 Y254.132
G01 X174.851 Y252.808
G01 X175.036 Y251.460
G01 X175.111 Y251.050
G01 X175.413 Y249.679
G01 X175.811 Y248.299
G01 X176.305 Y246.918
G01 X176.897 Y245.541
G01 X176.953 Y245.422
G01 X177.289 Y244.905
G01 X177.764 Y244.439
G01 X177.310 Y243.980
G01 X175.889 Y243.480
G01 X175.418 Y242.995
G01 X174.957 Y243.484
G01 X174.483 Y243.957
G01 X171.972 Y243.163
G01 X169.346 Y242.565
G01 X167.507 Y242.274
G01 X166.389 Y241.703
G01 X160.868 Y239.066
G01 X158.479 Y238.113
G01 X154.940 Y238.090
G01 X151.373 Y238.344
G01 X149.555 Y238.685
G01 X146.703 Y239.889
G01 X145.159 Y240.635
G01 X142.822 Y242.412
G01 X141.928 Y243.149
G01 X144.241 Y241.308
G01 X145.159 Y240.635
G01 X148.002 Y239.315
G01 X149.555 Y238.685
G01 X151.373 Y238.344
G01 X154.989 Y238.090
G01 X158.479 Y238.113
G01 X164.133 Y240.549
G01 X166.389 Y241.703
G01 X167.507 Y242.274
G01 X170.207 Y242.737
G01 X172.798 Y243.399
G01 X174.483 Y243.957
G01 X174.957 Y243.484
G01 X175.418 Y242.995
G01 X174.965 Y242.541
G01 X173.091 Y239.667
G01 X173.036 Y236.403
G01 X173.166 Y234.031
G01 X173.856 Y232.743
G01 X174.864 Y231.073
G01 X176.270 Y229.303
G01 X177.474 Y227.941
G01 X179.402 Y227.184
G01 X181.370 Y226.520
G01 X182.239 Y226.261
G01 X184.056 Y225.911
G01 X186.025 Y224.999
G01 X188.065 Y224.180
G01 X190.173 Y223.462
G01 X192.149 Y222.897
G01 X192.630 Y222.411
G01 X192.159 Y221.952
G01 X189.846 Y220.218
G01 X187.363 Y218.605
G01 X184.717 Y217.126
G01 X182.779 Y216.181
G01 X178.565 Y209.254
G01 X178.462 Y209.100
G01 X176.313 Y201.947
G01 X175.846 Y201.483
G01 X174.902 Y201.468
G01 X174.435 Y200.975
G01 X174.902 Y201.468
G01 X175.846 Y201.483
G01 X176.322 Y201.010
G01 X176.337 Y200.072
G01 X175.863 Y199.572
G01 X175.389 Y200.046
G01 X174.438 Y200.032
G01 X174.435 Y200.975
G01 X173.962 Y201.464
G01 X172.270 Y203.483
G01 X171.094 Y205.221
G01 X168.233 Y206.752
G01 X168.090 Y206.834
G01 X165.392 Y207.966
G01 X161.774 Y207.899
G01 X160.675 Y207.921
G01 X158.755 Y207.124
G01 X157.950 Y206.770
G01 X153.373 Y203.847
G01 X147.089 Y197.870
G01 X146.140 Y197.862
G01 X144.435 Y200.810
G01 X144.017 Y201.500
G01 X142.769 Y203.965
G01 X139.865 Y206.633
G01 X137.104 Y209.433
G01 X136.106 Y210.517
G01 X131.376 Y211.474
G01 X129.048 Y212.061
G01 X128.536 Y212.328
G01 X128.049 Y212.785
G01 X128.517 Y213.262
G01 X132.974 Y218.234
G01 X135.246 Y221.700
G01 X136.231 Y223.381
G01 X137.998 Y228.929
G01 X139.952 Y233.724
G01 X140.637 Y237.642
G01 X140.811 Y238.438
G01 X140.873 Y241.701
G01 X140.964 Y243.133
G01 X141.436 Y243.607
G01 X141.928 Y243.149
G01 X141.436 Y243.607
G01 X140.950 Y244.072
G01 X140.464 Y246.843
G01 X140.125 Y249.605
G01 X139.933 Y252.350
G01 X139.923 Y252.564
G01 X140.406 Y253.042
G01 X139.923 Y252.564
G01 X139.464 Y253.031
G01 X138.683 Y255.594
G01 X138.027 Y258.197
G01 X137.500 Y260.837
G01 X137.101 Y263.506
G01 X136.938 Y264.987
G01 X136.287 Y267.691
G01 X135.772 Y270.453
G01 X135.693 Y270.966
G01 X134.998 Y273.825
G01 X134.481 Y276.581
G01 X134.327 Y279.529
G01 X134.327 Y282.514
G01 X134.483 Y285.526
G01 X134.664 Y287.462
G01 X135.031 Y290.240
G01 X135.573 Y293.300
G01 X136.281 Y296.360
G01 X137.154 Y299.411
G01 X137.566 Y300.678
G01 X131.101 Y300.642
G01 X124.812 Y300.084
G01 X121.005 Y300.800
G01 X113.993 Y302.471
G01 X94.416 Y310.906
G01 X88.803 Y313.875
G01 X88.322 Y314.341
G01 X88.810 Y314.819
G01 X92.589 Y316.570
G01 X101.043 Y317.779
G01 X110.012 Y316.459
G01 X117.907 Y316.825
G01 X118.068 Y316.825
G01 X120.430 Y317.366
G01 X124.531 Y319.603
G01 X128.674 Y321.560
G01 X129.322 Y321.839
G01 X131.865 Y325.038
G01 X134.572 Y328.115
G01 X135.380 Y328.978
G01 X135.851 Y329.454
G01 X136.327 Y328.990
G01 X138.750 Y322.875
G01 X142.078 Y319.618
G01 X142.990 Y319.469
G01 X144.928 Y318.690
G01 X149.048 Y319.070
G01 X149.207 Y319.079
G01 X150.104 Y319.226
G01 X152.419 Y321.591
G01 X152.918 Y322.070
G01 X153.834 Y324.911
G01 X153.135 Y329.125
G01 X152.815 Y331.522
G01 X154.231 Y332.000
G01 X154.702 Y331.546
G01 X158.354 Y332.399
G01 X161.779 Y333.014
G01 X164.233 Y336.401
G01 X164.567 Y336.831
G01 X164.534 Y339.670
G01 X163.094 Y342.942
G01 X160.226 Y345.762
G01 X157.719 Y346.952
G01 X156.955 Y347.269
G01 X154.058 Y348.067
G01 X150.293 Y348.005
G01 X147.977 Y347.324
G01 X143.587 Y345.923
G01 X143.221 Y345.795
G01 X137.842 Y345.613
G01 X136.621 Y345.526
G01 X136.166 Y345.029
G01 X136.185 Y343.137
G01 X136.166 Y345.029
G01 X136.621 Y345.526
G01 X142.024 Y345.784
G01 X143.221 Y345.795
G01 X147.608 Y347.216
G01 X147.977 Y347.324
G01 X150.293 Y348.005
G01 X154.058 Y348.067
G01 X156.955 Y347.269
G01 X157.719 Y346.952
G01 X160.226 Y345.762
G01 X163.094 Y342.942
G01 X164.534 Y339.670
G01 X164.567 Y336.831
G01 X162.080 Y333.454
G01 X161.779 Y333.014
G01 X158.133 Y332.353
G01 X154.702 Y331.546
G01 X154.231 Y332.000
G01 X152.815 Y331.522
G01 X153.135 Y329.125
G01 X153.834 Y324.911
G01 X152.918 Y322.070
G01 X150.575 Y319.726
G01 X150.104 Y319.226
G01 X149.207 Y319.079
G01 X145.089 Y318.709
G01 X144.928 Y318.690
G01 X142.990 Y319.469
G01 X142.078 Y319.618
G01 X138.750 Y322.875
G01 X136.327 Y328.990
G01 X135.851 Y329.454
G01 X136.123 Y330.916
G01 X136.745 Y333.250
G01 X136.207 Y340.928
G01 X136.178 Y342.218
G01 X135.719 Y342.661
G01 X136.185 Y343.137
G01 X135.719 Y342.661
G01 X135.245 Y343.137
G01 X130.786 Y346.161
G01 X128.627 Y347.002
G01 X128.067 Y347.182
G01 X126.688 Y347.777
G01 X120.085 Y347.709
G01 X114.870 Y346.425
G01 X113.024 Y346.224
G01 X112.553 Y345.748
G01 X112.085 Y345.272
G01 X112.553 Y345.748
G01 X113.024 Y346.224
G01 X112.546 Y346.685
G01 X112.962 Y352.820
G01 X111.291 Y359.788
G01 X110.685 Y360.933
G01 X110.490 Y361.783
G01 X105.727 Y366.454
G01 X104.269 Y366.757
G01 X103.421 Y367.034
G01 X98.171 Y367.310
G01 X92.531 Y365.372
G01 X87.714 Y360.495
G01 X86.921 Y359.647
G01 X86.183 Y357.668
G01 X83.793 Y350.899
G01 X83.262 Y349.212
G01 X83.327 Y341.676
G01 X84.454 Y337.950
G01 X87.318 Y328.954
G01 X88.188 Y326.625
G01 X88.202 Y320.050
G01 X88.281 Y318.120
G01 X87.397 Y314.332
G01 X77.457 Y316.589
G01 X66.566 Y316.212
G01 X63.784 Y315.796
G01 X57.217 Y313.885
G01 X56.671 Y313.697
G01 X51.532 Y311.147
G01 X45.620 Y305.223
G01 X43.604 Y303.031
G01 X41.510 Y296.853
G01 X41.135 Y294.070
G01 X40.945 Y286.522
G01 X40.952 Y285.079
G01 X41.661 Y281.805
G01 X43.572 Y277.173
G01 X44.366 Y275.195
G01 X43.572 Y277.173
G01 X41.661 Y281.805
G01 X40.952 Y285.079
G01 X41.070 Y292.620
G01 X41.135 Y294.070
G01 X41.510 Y296.853
G01 X43.604 Y303.031
G01 X49.433 Y309.125
G01 X51.532 Y311.147
G01 X56.671 Y313.697
G01 X57.217 Y313.885
G01 X63.784 Y315.796
G01 X66.566 Y316.212
G01 X77.457 Y316.589
G01 X87.397 Y314.332
G01 X88.281 Y318.120
G01 X88.150 Y324.654
G01 X88.188 Y326.625
G01 X85.157 Y335.503
G01 X84.454 Y337.950
G01 X83.327 Y341.676
G01 X83.262 Y349.212
G01 X85.549 Y355.988
G01 X86.183 Y357.668
G01 X86.921 Y359.647
G01 X91.698 Y364.563
G01 X92.531 Y365.372
G01 X98.171 Y367.310
G01 X103.421 Y367.034
G01 X104.269 Y366.757
G01 X105.727 Y366.454
G01 X110.490 Y361.783
G01 X110.685 Y360.933
G01 X111.291 Y359.788
G01 X112.962 Y352.820
G01 X112.546 Y346.685
G01 X113.024 Y346.224
G01 X114.870 Y346.425
G01 X120.085 Y347.709
G01 X126.688 Y347.777
G01 X128.067 Y347.182
G01 X128.627 Y347.002
G01 X130.786 Y346.161
G01 X135.245 Y343.137
G01 X135.719 Y342.661
G01 X136.178 Y342.218
G01 X136.613 Y334.505
G01 X136.745 Y333.250
G01 X136.123 Y330.916
G01 X135.851 Y329.454
G01 X135.380 Y328.978
G01 X132.627 Y325.935
G01 X130.036 Y322.772
G01 X129.322 Y321.839
G01 X125.171 Y319.925
G01 X121.063 Y317.733
G01 X120.430 Y317.366
G01 X118.068 Y316.825
G01 X110.176 Y316.474
G01 X110.012 Y316.459
G01 X101.043 Y317.779
G01 X92.589 Y316.570
G01 X88.810 Y314.819
G01 X88.322 Y314.341
G01 X87.397 Y314.332
G01 X88.322 Y314.341
G01 X88.803 Y313.875
G01 X94.416 Y310.906
G01 X113.993 Y302.471
G01 X121.005 Y300.800
G01 X124.812 Y300.084
G01 X131.389 Y300.656
G01 X137.566 Y300.678
G01 X136.625 Y297.632
G01 X135.849 Y294.574
G01 X135.238 Y291.514
G01 X135.031 Y290.240
G01 X134.664 Y287.462
G01 X134.409 Y284.435
G01 X134.310 Y281.430
G01 X134.365 Y278.459
G01 X134.481 Y276.581
G01 X135.036 Y273.649
G01 X135.693 Y270.966
G01 X136.031 Y268.197
G01 X136.503 Y265.469
G01 X137.108 Y262.788
G01 X137.841 Y260.163
G01 X138.210 Y259.009
G01 X138.675 Y256.380
G01 X139.270 Y253.775
G01 X139.464 Y253.031
G01 X139.923 Y252.564
G01 X140.106 Y249.820
G01 X140.433 Y247.060
G01 X140.906 Y244.288
G01 X140.950 Y244.072
G01 X141.436 Y243.607
G01 X140.964 Y243.133
G01 X140.815 Y239.904
G01 X140.811 Y238.438
G01 X140.072 Y234.550
G01 X139.952 Y233.724
G01 X137.820 Y228.435
G01 X136.231 Y223.381
G01 X135.246 Y221.700
G01 X132.974 Y218.234
G01 X128.517 Y213.262
G01 X128.049 Y212.785
G01 X127.582 Y212.306
G01 X128.049 Y212.785
G01 X128.536 Y212.328
G01 X129.048 Y212.061
G01 X133.798 Y210.944
G01 X136.106 Y210.517
G01 X138.811 Y207.669
G01 X141.663 Y204.951
G01 X142.769 Y203.965
G01 X144.017 Y201.500
G01 X144.435 Y200.810
G01 X146.140 Y197.862
G01 X147.089 Y197.870
G01 X153.373 Y203.847
G01 X157.950 Y206.770
G01 X158.755 Y207.124
G01 X160.675 Y207.921
G01 X164.315 Y207.923
G01 X165.392 Y207.966
G01 X168.090 Y206.834
G01 X170.945 Y205.297
G01 X171.094 Y205.221
G01 X172.270 Y203.483
G01 X173.962 Y201.464
G01 X174.435 Y200.975
G01 X174.438 Y200.032
G01 X175.389 Y200.046
G01 X175.863 Y199.572
G01 X176.430 Y190.635
G01 X176.901 Y190.149
G01 X176.436 Y189.668
G01 X171.370 Y177.834
G01 X170.901 Y177.368
G01 X170.431 Y176.868
G01 X163.983 Y171.035
G01 X162.940 Y170.179
G01 X161.099 Y169.976
G01 X154.486 Y166.583
G01 X151.103 Y165.076
G01 X150.264 Y164.885
G01 X143.245 Y157.715
G01 X142.793 Y156.308
G01 X140.906 Y156.274
G01 X138.678 Y161.538
G01 X136.565 Y165.207
G01 X131.988 Y168.666
G01 X127.615 Y172.325
G01 X123.457 Y176.173
G01 X122.284 Y177.332
G01 X120.108 Y180.775
G01 X117.801 Y186.213
G01 X117.657 Y186.772
G01 X116.476 Y191.435
G01 X116.402 Y197.091
G01 X118.899 Y205.012
G01 X120.084 Y207.516
G01 X120.553 Y207.992
G01 X127.582 Y212.306
G01 X120.553 Y207.992
G01 X120.084 Y207.516
G01 X119.606 Y207.983
G01 X111.162 Y207.433
G01 X110.637 Y207.422
G01 X106.816 Y208.184
G01 X103.590 Y208.946
G01 X99.198 Y210.895
G01 X98.472 Y211.282
G01 X95.481 Y212.936
G01 X91.353 Y216.947
G01 X90.719 Y217.602
G01 X90.484 Y218.405
G01 X87.560 Y222.887
G01 X85.404 Y228.029
G01 X85.275 Y228.358
G01 X84.173 Y233.853
G01 X83.425 Y238.770
G01 X83.608 Y244.441
G01 X84.084 Y250.023
G01 X84.524 Y253.453
G01 X85.275 Y256.687
G01 X85.594 Y258.147
G01 X72.854 Y258.490
G01 X72.859 Y257.543
G01 X72.373 Y257.070
G01 X70.404 Y256.298
G01 X56.750 Y251.911
G01 X55.928 Y251.707
G01 X52.183 Y247.891
G01 X51.984 Y247.049
G01 X50.334 Y243.165
G01 X50.664 Y239.817
G01 X50.858 Y237.977
G01 X54.209 Y234.700
G01 X58.914 Y234.750
G01 X62.118 Y236.391
G01 X63.159 Y237.156
G01 X65.026 Y237.167
G01 X66.151 Y233.459
G01 X66.702 Y232.125
G01 X68.769 Y229.453
G01 X70.320 Y228.261
G01 X74.102 Y228.292
G01 X77.851 Y230.224
G01 X80.441 Y235.001
G01 X80.798 Y236.822
G01 X81.034 Y241.108
G01 X80.430 Y242.481
G01 X77.293 Y247.627
G01 X74.399 Y253.024
G01 X74.005 Y253.816
G01 X73.322 Y257.081
G01 X74.005 Y253.816
G01 X76.864 Y248.386
G01 X79.966 Y243.202
G01 X80.430 Y242.481
G01 X81.034 Y241.108
G01 X80.798 Y236.822
G01 X80.441 Y235.001
G01 X77.851 Y230.224
G01 X74.102 Y228.292
G01 X70.320 Y228.261
G01 X68.769 Y229.453
G01 X66.702 Y232.125
G01 X66.151 Y233.459
G01 X65.026 Y237.167
G01 X63.159 Y237.156
G01 X62.118 Y236.391
G01 X58.914 Y234.750
G01 X54.209 Y234.700
G01 X50.858 Y237.977
G01 X50.664 Y239.817
G01 X50.334 Y243.165
G01 X51.984 Y247.049
G01 X52.183 Y247.891
G01 X55.928 Y251.707
G01 X56.750 Y251.911
G01 X70.404 Y256.298
G01 X72.373 Y257.070
G01 X72.859 Y257.543
G01 X73.322 Y257.081
G01 X72.859 Y257.543
G01 X72.854 Y258.490
G01 X65.288 Y260.488
G01 X56.640 Y263.805
G01 X53.421 Y265.380
G01 X46.207 Y272.425
G01 X45.803 Y272.851
G01 X45.303 Y274.264
G01 X44.356 Y274.250
G01 X43.880 Y273.781
G01 X44.137 Y266.512
G01 X44.478 Y261.983
G01 X44.012 Y260.558
G01 X39.363 Y255.791
G01 X35.575 Y255.752
G01 X34.538 Y256.498
G01 X33.382 Y258.120
G01 X32.649 Y264.220
G01 X28.899 Y264.387
G01 X26.515 Y264.624
G01 X25.096 Y266.034
G01 X24.952 Y266.935
G01 X24.589 Y270.281
G01 X25.038 Y271.692
G01 X27.834 Y274.562
G01 X33.966 Y276.039
G01 X34.476 Y275.712
G01 X38.253 Y274.884
G01 X43.887 Y274.716
G01 X38.253 Y274.884
G01 X34.476 Y275.712
G01 X33.966 Y276.039
G01 X27.834 Y274.562
G01 X25.038 Y271.692
G01 X24.589 Y270.281
G01 X24.952 Y266.935
G01 X25.096 Y266.034
G01 X26.515 Y264.624
G01 X28.899 Y264.387
G01 X32.649 Y264.220
G01 X33.382 Y258.120
G01 X34.538 Y256.498
G01 X35.575 Y255.752
G01 X39.363 Y255.791
G01 X44.012 Y260.558
G01 X44.478 Y261.983
G01 X43.998 Y269.230
G01 X43.880 Y273.781
G01 X44.356 Y274.250
G01 X43.887 Y274.716
G01 X44.366 Y275.195
G01 X43.887 Y274.716
G01 X44.356 Y274.250
G01 X45.303 Y274.264
G01 X45.803 Y272.851
G01 X52.998 Y265.764
G01 X53.421 Y265.380
G01 X56.640 Y263.805
G01 X65.288 Y260.488
G01 X72.854 Y258.490
G01 X85.594 Y258.147
G01 X85.275 Y256.687
G01 X84.524 Y253.453
G01 X83.870 Y247.935
G01 X83.505 Y242.317
G01 X83.425 Y238.770
G01 X84.277 Y233.262
G01 X85.275 Y228.358
G01 X87.416 Y223.210
G01 X87.560 Y222.887
G01 X90.484 Y218.405
G01 X90.719 Y217.602
G01 X94.823 Y213.548
G01 X95.481 Y212.936
G01 X98.472 Y211.282
G01 X99.198 Y210.895
G01 X103.590 Y208.946
G01 X106.816 Y208.184
G01 X110.637 Y207.422
G01 X119.094 Y207.929
G01 X119.606 Y207.983
G01 X120.084 Y207.516
G01 X118.899 Y205.012
G01 X116.402 Y197.091
G01 X116.476 Y191.435
G01 X117.657 Y186.772
G01 X117.801 Y186.213
G01 X120.108 Y180.775
G01 X122.284 Y177.332
G01 X126.378 Y173.429
G01 X130.690 Y169.714
G01 X135.207 Y166.196
G01 X136.565 Y165.207
G01 X138.678 Y161.538
G01 X140.906 Y156.274
G01 X142.793 Y156.308
G01 X143.245 Y157.715
G01 X150.264 Y164.885
G01 X151.103 Y165.076
G01 X157.916 Y168.264
G01 X161.099 Y169.976
G01 X162.940 Y170.179
G01 X162.818 Y169.302
G01 X160.919 Y165.560
G01 X158.979 Y160.188
G01 X158.642 Y158.387
G01 X157.907 Y155.501
G01 X157.986 Y147.018
G01 X161.553 Y136.242
G01 X162.570 Y133.464
G01 X164.816 Y126.322
G01 X164.880 Y119.722
G01 X163.979 Y114.977
G01 X164.460 Y114.499
G01 X164.935 Y114.059
G01 X164.529 Y106.953
G01 X164.822 Y106.441
G01 X165.739 Y103.383
G01 X171.474 Y96.929
G01 X173.639 Y93.374
G01 X174.120 Y92.903
G01 X173.647 Y92.424
G01 X168.858 Y80.181
G01 X160.519 Y55.886
G01 X156.568 Y40.839
G01 X153.330 Y21.861
G01 X152.948 Y18.130
G01 X152.854 Y17.486
G01 X152.854 Y17.486
G01 X152.948 Y18.130
G01 X153.330 Y21.861
G01 X156.568 Y40.839
G01 X160.519 Y55.886
G01 X168.858 Y80.181
G01 X173.647 Y92.424
G01 X168.858 Y80.181
G01 X160.519 Y55.886
G01 X156.568 Y40.839
G01 X153.330 Y21.861
G01 X152.948 Y18.130
G01 X152.854 Y17.486

